<?xml version="1.0" encoding="UTF-8"?>
<gpx xmlns="http://www.topografix.com/GPX/1/1"
     xmlns:xsi="http://www.w3.org/2001/XMLSchema-instance"
     xsi:schemaLocation="http://www.topografix.com/GPX/1/1 http://www.topografix.com/GPX/1/1/gpx.xsd"
     version="1.1"
     creator="SOTA-GPX-Converter">
<name>SOTA_OM</name>
<wpt lat="48.4164" lon="17.217">
<ele>754.0</ele>
<name>OM/BA-001 Vysoká</name>
<cmt>OM/BA-001</cmt>
<desc>Slovakia | Bratislavský | 754m / 2474ft | 2 pts | 76 activations</desc>
<sym>Flag, Blue</sym>
</wpt>
<wpt lat="48.4602" lon="17.2742">
<ele>752.0</ele>
<name>OM/BA-002 Vápenná</name>
<cmt>OM/BA-002</cmt>
<desc>Slovakia | Bratislavský | 752m / 2467ft | 2 pts | 68 activations</desc>
<sym>Flag, Blue</sym>
</wpt>
<wpt lat="48.381" lon="17.2113">
<ele>752.0</ele>
<name>OM/BA-003 Certov kopec</name>
<cmt>OM/BA-003</cmt>
<desc>Slovakia | Bratislavský | 752m / 2467ft | 2 pts | 66 activations</desc>
<sym>Flag, Blue</sym>
</wpt>
<wpt lat="48.1894" lon="16.9955">
<ele>514.0</ele>
<name>OM/BA-004 Devínska Kobyla</name>
<cmt>OM/BA-004</cmt>
<desc>Slovakia | Bratislavský | 514m / 1686ft | 1 pts | 199 activations</desc>
<sym>Flag, Blue</sym>
</wpt>
<wpt lat="48.4325" lon="17.3118">
<ele>694.0</ele>
<name>OM/BA-005 Geldek</name>
<cmt>OM/BA-005</cmt>
<desc>Slovakia | Bratislavský | 694m / 2276ft | 1 pts | 43 activations</desc>
<sym>Flag, Blue</sym>
</wpt>
<wpt lat="48.4994" lon="17.3421">
<ele>662.0</ele>
<name>OM/BA-006 Cierna skala</name>
<cmt>OM/BA-006</cmt>
<desc>Slovakia | Bratislavský | 662m / 2171ft | 1 pts | 36 activations</desc>
<sym>Flag, Blue</sym>
</wpt>
<wpt lat="48.9364" lon="19.6403">
<ele>2043.0</ele>
<name>OM/BB-001 Ďumbier</name>
<cmt>OM/BB-001</cmt>
<desc>Slovakia | Banskobystrick | 2043m / 6703ft | 10 pts | 75 activations</desc>
<sym>Flag, Blue</sym>
</wpt>
<wpt lat="48.929" lon="19.5192">
<ele>1980.0</ele>
<name>OM/BB-002 Skalka</name>
<cmt>OM/BB-002</cmt>
<desc>Slovakia | Banskobystrick | 1980m / 6496ft | 10 pts | 30 activations</desc>
<sym>Flag, Blue</sym>
</wpt>
<wpt lat="48.8829" lon="20.1388">
<ele>1946.0</ele>
<name>OM/BB-003 Kráľova hoľa</name>
<cmt>OM/BB-003</cmt>
<desc>Slovakia | Banskobystrick | 1946m / 6385ft | 10 pts | 35 activations</desc>
<sym>Flag, Blue</sym>
</wpt>
<wpt lat="48.9139" lon="19.9818">
<ele>1691.0</ele>
<name>OM/BB-004 Veľká Vápenica</name>
<cmt>OM/BB-004</cmt>
<desc>Slovakia | Banskobystrick | 1691m / 5548ft | 8 pts | 9 activations</desc>
<sym>Flag, Blue</sym>
</wpt>
<wpt lat="48.8803" lon="19.7328">
<ele>1542.0</ele>
<name>OM/BB-005 Beňuška</name>
<cmt>OM/BB-005</cmt>
<desc>Slovakia | Banskobystrick | 1542m / 5059ft | 6 pts | 29 activations</desc>
<sym>Flag, Blue</sym>
</wpt>
<wpt lat="48.7737" lon="20.207">
<ele>1477.0</ele>
<name>OM/BB-006 Stolica</name>
<cmt>OM/BB-006</cmt>
<desc>Slovakia | Banskobystrick | 1477m / 4846ft | 6 pts | 2 activations</desc>
<sym>Flag, Blue</sym>
</wpt>
<wpt lat="48.6368" lon="19.4835">
<ele>1458.0</ele>
<name>OM/BB-007 Poľana</name>
<cmt>OM/BB-007</cmt>
<desc>Slovakia | Banskobystrick | 1458m / 4783ft | 6 pts | 33 activations</desc>
<sym>Flag, Blue</sym>
</wpt>
<wpt lat="48.7725" lon="19.8855">
<ele>1439.0</ele>
<name>OM/BB-008 Fabova hoľa</name>
<cmt>OM/BB-008</cmt>
<desc>Slovakia | Banskobystrick | 1439m / 4721ft | 6 pts | 4 activations</desc>
<sym>Flag, Blue</sym>
</wpt>
<wpt lat="48.7791" lon="19.9658">
<ele>1409.0</ele>
<name>OM/BB-009 Kľak</name>
<cmt>OM/BB-009</cmt>
<desc>Slovakia | Banskobystrick | 1409m / 4623ft | 6 pts | 2 activations</desc>
<sym>Flag, Blue</sym>
</wpt>
<wpt lat="48.6892" lon="19.7698">
<ele>1338.0</ele>
<name>OM/BB-010 Klenovský Vepor</name>
<cmt>OM/BB-010</cmt>
<desc>Slovakia | Banskobystrick | 1338m / 4390ft | 6 pts | 2 activations</desc>
<sym>Flag, Blue</sym>
</wpt>
<wpt lat="48.4416" lon="19.29">
<ele>1044.0</ele>
<name>OM/BB-011 Javorie</name>
<cmt>OM/BB-011</cmt>
<desc>Slovakia | Banskobystrick | 1044m / 3425ft | 4 pts | 12 activations</desc>
<sym>Flag, Blue</sym>
</wpt>
<wpt lat="48.6253" lon="19.9168">
<ele>1011.0</ele>
<name>OM/BB-012 Ostrá</name>
<cmt>OM/BB-012</cmt>
<desc>Slovakia | Banskobystrick | 1011m / 3317ft | 4 pts | 4 activations</desc>
<sym>Flag, Blue</sym>
</wpt>
<wpt lat="48.4033" lon="18.8772">
<ele>1009.0</ele>
<name>OM/BB-013 Sitno</name>
<cmt>OM/BB-013</cmt>
<desc>Slovakia | Banskobystrick | 1009m / 3310ft | 4 pts | 56 activations</desc>
<sym>Flag, Blue</sym>
</wpt>
<wpt lat="48.5472" lon="19.7335">
<ele>995.0</ele>
<name>OM/BB-014 Jasenina</name>
<cmt>OM/BB-014</cmt>
<desc>Slovakia | Banskobystrick | 995m / 3264ft | 4 pts | 8 activations</desc>
<sym>Flag, Blue</sym>
</wpt>
<wpt lat="48.7551" lon="19.3805">
<ele>994.0</ele>
<name>OM/BB-015 Vysoká</name>
<cmt>OM/BB-015</cmt>
<desc>Slovakia | Banskobystrick | 994m / 3261ft | 4 pts | 19 activations</desc>
<sym>Flag, Blue</sym>
</wpt>
<wpt lat="48.7536" lon="19.7293">
<ele>973.0</ele>
<name>OM/BB-016 Zrazy</name>
<cmt>OM/BB-016</cmt>
<desc>Slovakia | Banskobystrick | 973m / 3192ft | 4 pts | 2 activations</desc>
<sym>Flag, Blue</sym>
</wpt>
<wpt lat="48.7388" lon="20.115">
<ele>970.0</ele>
<name>OM/BB-017 Radzim</name>
<cmt>OM/BB-017</cmt>
<desc>Slovakia | Banskobystrick | 970m / 3182ft | 4 pts | 2 activations</desc>
<sym>Flag, Blue</sym>
</wpt>
<wpt lat="48.7159" lon="19.89">
<ele>964.0</ele>
<name>OM/BB-018 Magnet</name>
<cmt>OM/BB-018</cmt>
<desc>Slovakia | Banskobystrick | 964m / 3163ft | 4 pts | 1 activations</desc>
<sym>Flag, Blue</sym>
</wpt>
<wpt lat="48.8293" lon="19.2975">
<ele>958.0</ele>
<name>OM/BB-019 Hradište</name>
<cmt>OM/BB-019</cmt>
<desc>Slovakia | Banskobystrick | 958m / 3143ft | 4 pts | 2 activations</desc>
<sym>Flag, Blue</sym>
</wpt>
<wpt lat="48.827" lon="19.6227">
<ele>946.0</ele>
<name>OM/BB-020 Skalka</name>
<cmt>OM/BB-020</cmt>
<desc>Slovakia | Banskobystrick | 946m / 3104ft | 4 pts | 16 activations</desc>
<sym>Flag, Blue</sym>
</wpt>
<wpt lat="48.4628" lon="18.8743">
<ele>939.0</ele>
<name>OM/BB-021 Paradajs</name>
<cmt>OM/BB-021</cmt>
<desc>Slovakia | Banskobystrick | 939m / 3081ft | 4 pts | 54 activations</desc>
<sym>Flag, Blue</sym>
</wpt>
<wpt lat="48.5549" lon="19.9157">
<ele>917.0</ele>
<name>OM/BB-022 Sinec</name>
<cmt>OM/BB-022</cmt>
<desc>Slovakia | Banskobystrick | 917m / 3009ft | 4 pts | 1 activations</desc>
<sym>Flag, Blue</sym>
</wpt>
<wpt lat="48.4952" lon="19.1627">
<ele>908.0</ele>
<name>OM/BB-023 Lomné</name>
<cmt>OM/BB-023</cmt>
<desc>Slovakia | Banskobystrick | 908m / 2979ft | 4 pts | 41 activations</desc>
<sym>Flag, Blue</sym>
</wpt>
<wpt lat="48.6819" lon="19.9237">
<ele>887.0</ele>
<name>OM/BB-024 Hradová</name>
<cmt>OM/BB-024</cmt>
<desc>Slovakia | Banskobystrick | 887m / 2910ft | 2 pts | 1 activations</desc>
<sym>Flag, Blue</sym>
</wpt>
<wpt lat="48.4562" lon="18.995">
<ele>882.0</ele>
<name>OM/BB-025 Skalka</name>
<cmt>OM/BB-025</cmt>
<desc>Slovakia | Banskobystrick | 882m / 2894ft | 2 pts | 20 activations</desc>
<sym>Flag, Blue</sym>
</wpt>
<wpt lat="48.5087" lon="19.2782">
<ele>863.0</ele>
<name>OM/BB-026 Veľký Korčín</name>
<cmt>OM/BB-026</cmt>
<desc>Slovakia | Banskobystrick | 863m / 2831ft | 2 pts | 21 activations</desc>
<sym>Flag, Blue</sym>
</wpt>
<wpt lat="48.4231" lon="18.7432">
<ele>856.0</ele>
<name>OM/BB-027 Veľký Žiar</name>
<cmt>OM/BB-027</cmt>
<desc>Slovakia | Banskobystrick | 856m / 2808ft | 2 pts | 23 activations</desc>
<sym>Flag, Blue</sym>
</wpt>
<wpt lat="48.5241" lon="18.9472">
<ele>836.0</ele>
<name>OM/BB-028 Štálová</name>
<cmt>OM/BB-028</cmt>
<desc>Slovakia | Banskobystrick | 836m / 2743ft | 2 pts | 35 activations</desc>
<sym>Flag, Blue</sym>
</wpt>
<wpt lat="48.6205" lon="20.1302">
<ele>814.0</ele>
<name>OM/BB-029 Železník</name>
<cmt>OM/BB-029</cmt>
<desc>Slovakia | Banskobystrick | 814m / 2671ft | 2 pts | 2 activations</desc>
<sym>Flag, Blue</sym>
</wpt>
<wpt lat="48.1584" lon="19.7897">
<ele>727.0</ele>
<name>OM/BB-030 Karanč</name>
<cmt>OM/BB-030</cmt>
<desc>Slovakia | Banskobystrick | 727m / 2385ft | 2 pts | 15 activations</desc>
<sym>Flag, Blue</sym>
</wpt>
<wpt lat="48.4681" lon="19.613">
<ele>719.0</ele>
<name>OM/BB-031 Strieborná</name>
<cmt>OM/BB-031</cmt>
<desc>Slovakia | Banskobystrick | 719m / 2359ft | 2 pts | 13 activations</desc>
<sym>Flag, Blue</sym>
</wpt>
<wpt lat="48.7254" lon="19.1913">
<ele>713.0</ele>
<name>OM/BB-032 Stará kopa</name>
<cmt>OM/BB-032</cmt>
<desc>Slovakia | Banskobystrick | 713m / 2339ft | 2 pts | 35 activations</desc>
<sym>Flag, Blue</sym>
</wpt>
<wpt lat="48.4755" lon="18.6718">
<ele>711.0</ele>
<name>OM/BB-033 Drienčie</name>
<cmt>OM/BB-033</cmt>
<desc>Slovakia | Banskobystrick | 711m / 2333ft | 2 pts | 25 activations</desc>
<sym>Flag, Blue</sym>
</wpt>
<wpt lat="48.1763" lon="19.8412">
<ele>660.0</ele>
<name>OM/BB-034 Šiator</name>
<cmt>OM/BB-034</cmt>
<desc>Slovakia | Banskobystrick | 660m / 2165ft | 1 pts | 6 activations</desc>
<sym>Flag, Blue</sym>
</wpt>
<wpt lat="48.6415" lon="20.1735">
<ele>648.0</ele>
<name>OM/BB-035 Štyri chotáre</name>
<cmt>OM/BB-035</cmt>
<desc>Slovakia | Banskobystrick | 648m / 2126ft | 1 pts | 1 activations</desc>
<sym>Flag, Blue</sym>
</wpt>
<wpt lat="48.3071" lon="19.8728">
<ele>514.0</ele>
<name>OM/BB-036 Veľký Bučeň</name>
<cmt>OM/BB-036</cmt>
<desc>Slovakia | Banskobystrick | 514m / 1686ft | 1 pts | 5 activations</desc>
<sym>Flag, Blue</sym>
</wpt>
<wpt lat="48.8346" lon="20.2194">
<ele>1390.0</ele>
<name>OM/BB-037 Trsteník</name>
<cmt>OM/BB-037</cmt>
<desc>Slovakia | Banskobystrick | 1390m / 4560ft | 6 pts | 8 activations</desc>
<sym>Flag, Blue</sym>
</wpt>
<wpt lat="48.8603" lon="19.2905">
<ele>1330.0</ele>
<name>OM/BB-038 Kozí chrbát</name>
<cmt>OM/BB-038</cmt>
<desc>Slovakia | Banskobystrick | 1330m / 4363ft | 6 pts | 24 activations</desc>
<sym>Flag, Blue</sym>
</wpt>
<wpt lat="48.6746" lon="19.4166">
<ele>1293.0</ele>
<name>OM/BB-039 Bukovina</name>
<cmt>OM/BB-039</cmt>
<desc>Slovakia | Banskobystrick | 1293m / 4242ft | 4 pts | 5 activations</desc>
<sym>Flag, Blue</sym>
</wpt>
<wpt lat="48.7566" lon="19.0036">
<ele>1282.0</ele>
<name>OM/BB-040 Vyhnatová</name>
<cmt>OM/BB-040</cmt>
<desc>Slovakia | Banskobystrick | 1282m / 4206ft | 4 pts | 33 activations</desc>
<sym>Flag, Blue</sym>
</wpt>
<wpt lat="48.7152" lon="19.4582">
<ele>1277.0</ele>
<name>OM/BB-041 Vepor</name>
<cmt>OM/BB-041</cmt>
<desc>Slovakia | Banskobystrick | 1277m / 4189ft | 4 pts | 9 activations</desc>
<sym>Flag, Blue</sym>
</wpt>
<wpt lat="48.7564" lon="19.914">
<ele>1262.0</ele>
<name>OM/BB-042 Vysoký vrch</name>
<cmt>OM/BB-042</cmt>
<desc>Slovakia | Banskobystrick | 1262m / 4140ft | 4 pts | 1 activations</desc>
<sym>Flag, Blue</sym>
</wpt>
<wpt lat="48.9376" lon="19.0395">
<ele>1229.0</ele>
<name>OM/BB-043 Nad Uhliskami</name>
<cmt>OM/BB-043</cmt>
<desc>Slovakia | Banskobystrick | 1229m / 4032ft | 4 pts | 4 activations</desc>
<sym>Flag, Blue</sym>
</wpt>
<wpt lat="48.7751" lon="19.9247">
<ele>1204.0</ele>
<name>OM/BB-044 Malá Stožka</name>
<cmt>OM/BB-044</cmt>
<desc>Slovakia | Banskobystrick | 1204m / 3950ft | 4 pts | 1 activations</desc>
<sym>Flag, Blue</sym>
</wpt>
<wpt lat="48.8291" lon="19.1584">
<ele>1153.0</ele>
<name>OM/BB-045 Jelenská skala</name>
<cmt>OM/BB-045</cmt>
<desc>Slovakia | Banskobystrick | 1153m / 3782ft | 4 pts | 13 activations</desc>
<sym>Flag, Blue</sym>
</wpt>
<wpt lat="48.6601" lon="19.9976">
<ele>1132.0</ele>
<name>OM/BB-046 Tŕstie</name>
<cmt>OM/BB-046</cmt>
<desc>Slovakia | Banskobystrick | 1132m / 3713ft | 4 pts | 1 activations</desc>
<sym>Flag, Blue</sym>
</wpt>
<wpt lat="48.6188" lon="19.7008">
<ele>1117.0</ele>
<name>OM/BB-047 Drahová</name>
<cmt>OM/BB-047</cmt>
<desc>Slovakia | Banskobystrick | 1117m / 3664ft | 4 pts | 7 activations</desc>
<sym>Flag, Blue</sym>
</wpt>
<wpt lat="48.6398" lon="19.4065">
<ele>1115.0</ele>
<name>OM/BB-048 Želobudzská skalka</name>
<cmt>OM/BB-048</cmt>
<desc>Slovakia | Banskobystrick | 1115m / 3658ft | 4 pts | 5 activations</desc>
<sym>Flag, Blue</sym>
</wpt>
<wpt lat="48.7981" lon="19.1499">
<ele>1100.0</ele>
<name>OM/BB-049 Panský diel</name>
<cmt>OM/BB-049</cmt>
<desc>Slovakia | Banskobystrick | 1100m / 3608ft | 4 pts | 50 activations</desc>
<sym>Flag, Blue</sym>
</wpt>
<wpt lat="48.8357" lon="20.0288">
<ele>1098.0</ele>
<name>OM/BB-050 Gindura</name>
<cmt>OM/BB-050</cmt>
<desc>Slovakia | Banskobystrick | 1098m / 3602ft | 4 pts | 4 activations</desc>
<sym>Flag, Blue</sym>
</wpt>
<wpt lat="48.8284" lon="20.1352">
<ele>1011.0</ele>
<name>OM/BB-051 Grúň</name>
<cmt>OM/BB-051</cmt>
<desc>Slovakia | Banskobystrick | 1011m / 3316ft | 4 pts | 2 activations</desc>
<sym>Flag, Blue</sym>
</wpt>
<wpt lat="48.8204" lon="19.2377">
<ele>987.0</ele>
<name>OM/BB-052 Vysoká</name>
<cmt>OM/BB-052</cmt>
<desc>Slovakia | Banskobystrick | 987m / 3238ft | 4 pts | 20 activations</desc>
<sym>Flag, Blue</sym>
</wpt>
<wpt lat="48.7354" lon="19.8344">
<ele>987.0</ele>
<name>OM/BB-053 Dielik</name>
<cmt>OM/BB-053</cmt>
<desc>Slovakia | Banskobystrick | 987m / 3238ft | 4 pts | 3 activations</desc>
<sym>Flag, Blue</sym>
</wpt>
<wpt lat="48.7738" lon="19.0516">
<ele>959.0</ele>
<name>OM/BB-054 Lučivno</name>
<cmt>OM/BB-054</cmt>
<desc>Slovakia | Banskobystrick | 959m / 3146ft | 4 pts | 18 activations</desc>
<sym>Flag, Blue</sym>
</wpt>
<wpt lat="48.8277" lon="20.0595">
<ele>951.0</ele>
<name>OM/BB-055 Hôrka</name>
<cmt>OM/BB-055</cmt>
<desc>Slovakia | Banskobystrick | 951m / 3120ft | 4 pts | 2 activations</desc>
<sym>Flag, Blue</sym>
</wpt>
<wpt lat="48.4775" lon="19.3192">
<ele>933.0</ele>
<name>OM/BB-056 Ďurovie vrch</name>
<cmt>OM/BB-056</cmt>
<desc>Slovakia | Banskobystrick | 933m / 3061ft | 4 pts | 21 activations</desc>
<sym>Flag, Blue</sym>
</wpt>
<wpt lat="48.5076" lon="19.2325">
<ele>886.0</ele>
<name>OM/BB-057 Drieň</name>
<cmt>OM/BB-057</cmt>
<desc>Slovakia | Banskobystrick | 886m / 2906ft | 2 pts | 7 activations</desc>
<sym>Flag, Blue</sym>
</wpt>
<wpt lat="48.4982" lon="19.3778">
<ele>876.0</ele>
<name>OM/BB-058 Ostrôžka</name>
<cmt>OM/BB-058</cmt>
<desc>Slovakia | Banskobystrick | 876m / 2874ft | 2 pts | 9 activations</desc>
<sym>Flag, Blue</sym>
</wpt>
<wpt lat="48.6742" lon="18.7477">
<ele>869.0</ele>
<name>OM/BB-059 Hajnická hora</name>
<cmt>OM/BB-059</cmt>
<desc>Slovakia | Banskobystrick | 869m / 2851ft | 2 pts | 15 activations</desc>
<sym>Flag, Blue</sym>
</wpt>
<wpt lat="48.5212" lon="18.5443">
<ele>799.0</ele>
<name>OM/BB-060 Sokolec</name>
<cmt>OM/BB-060</cmt>
<desc>Slovakia | Banskobystrick | 799m / 2621ft | 2 pts | 13 activations</desc>
<sym>Flag, Blue</sym>
</wpt>
<wpt lat="48.5232" lon="18.6928">
<ele>758.0</ele>
<name>OM/BB-061 Čierny vrch</name>
<cmt>OM/BB-061</cmt>
<desc>Slovakia | Banskobystrick | 758m / 2486ft | 2 pts | 18 activations</desc>
<sym>Flag, Blue</sym>
</wpt>
<wpt lat="48.3546" lon="18.6453">
<ele>746.0</ele>
<name>OM/BB-062 Priesil</name>
<cmt>OM/BB-062</cmt>
<desc>Slovakia | Banskobystrick | 746m / 2447ft | 2 pts | 16 activations</desc>
<sym>Flag, Blue</sym>
</wpt>
<wpt lat="48.4035" lon="18.6829">
<ele>725.0</ele>
<name>OM/BB-063 Chlm</name>
<cmt>OM/BB-063</cmt>
<desc>Slovakia | Banskobystrick | 725m / 2378ft | 2 pts | 18 activations</desc>
<sym>Flag, Blue</sym>
</wpt>
<wpt lat="48.6398" lon="18.9164">
<ele>683.0</ele>
<name>OM/BB-064 Jastrabská skala</name>
<cmt>OM/BB-064</cmt>
<desc>Slovakia | Banskobystrick | 683m / 2240ft | 1 pts | 16 activations</desc>
<sym>Flag, Blue</sym>
</wpt>
<wpt lat="48.5387" lon="19.0772">
<ele>680.0</ele>
<name>OM/BB-065 Vápenná</name>
<cmt>OM/BB-065</cmt>
<desc>Slovakia | Banskobystrick | 680m / 2230ft | 1 pts | 3 activations</desc>
<sym>Flag, Blue</sym>
</wpt>
<wpt lat="48.5526" lon="19.3489">
<ele>656.0</ele>
<name>OM/BB-066 Rohy</name>
<cmt>OM/BB-066</cmt>
<desc>Slovakia | Banskobystrick | 656m / 2152ft | 1 pts | 1 activations</desc>
<sym>Flag, Blue</sym>
</wpt>
<wpt lat="48.583" lon="20.1194">
<ele>555.0</ele>
<name>OM/BB-067 Brevenovo</name>
<cmt>OM/BB-067</cmt>
<desc>Slovakia | Banskobystrick | 555m / 1820ft | 1 pts</desc>
<sym>Flag, Blue</sym>
</wpt>
<wpt lat="48.2227" lon="19.9824">
<ele>536.0</ele>
<name>OM/BB-068 Ragáč</name>
<cmt>OM/BB-068</cmt>
<desc>Slovakia | Banskobystrick | 536m / 1758ft | 1 pts | 4 activations</desc>
<sym>Flag, Blue</sym>
</wpt>
<wpt lat="48.7668" lon="20.6557">
<ele>1322.0</ele>
<name>OM/KE-001 Zlatý stôl</name>
<cmt>OM/KE-001</cmt>
<desc>Slovakia | Košický | 1322m / 4337ft | 6 pts | 4 activations</desc>
<sym>Flag, Blue</sym>
</wpt>
<wpt lat="48.8302" lon="20.4627">
<ele>1278.0</ele>
<name>OM/KE-002 Babiná</name>
<cmt>OM/KE-002</cmt>
<desc>Slovakia | Košický | 1278m / 4193ft | 4 pts | 5 activations</desc>
<sym>Flag, Blue</sym>
</wpt>
<wpt lat="48.8641" lon="20.4732">
<ele>1266.0</ele>
<name>OM/KE-003 Velká Knola</name>
<cmt>OM/KE-003</cmt>
<desc>Slovakia | Košický | 1266m / 4154ft | 4 pts | 6 activations</desc>
<sym>Flag, Blue</sym>
</wpt>
<wpt lat="48.7824" lon="20.9878">
<ele>1246.0</ele>
<name>OM/KE-004 Kojšovská hola</name>
<cmt>OM/KE-004</cmt>
<desc>Slovakia | Košický | 1246m / 4088ft | 4 pts | 15 activations</desc>
<sym>Flag, Blue</sym>
</wpt>
<wpt lat="48.6842" lon="20.676">
<ele>1225.0</ele>
<name>OM/KE-005 Pipitka</name>
<cmt>OM/KE-005</cmt>
<desc>Slovakia | Košický | 1225m / 4019ft | 4 pts | 5 activations</desc>
<sym>Flag, Blue</sym>
</wpt>
<wpt lat="48.7797" lon="20.8595">
<ele>1153.0</ele>
<name>OM/KE-006 Kloptan</name>
<cmt>OM/KE-006</cmt>
<desc>Slovakia | Košický | 1153m / 3783ft | 4 pts | 4 activations</desc>
<sym>Flag, Blue</sym>
</wpt>
<wpt lat="48.9735" lon="20.8722">
<ele>1129.0</ele>
<name>OM/KE-007 Slubica</name>
<cmt>OM/KE-007</cmt>
<desc>Slovakia | Košický | 1129m / 3704ft | 4 pts | 9 activations</desc>
<sym>Flag, Blue</sym>
</wpt>
<wpt lat="48.8472" lon="20.7215">
<ele>1127.0</ele>
<name>OM/KE-008 Bukovec</name>
<cmt>OM/KE-008</cmt>
<desc>Slovakia | Košický | 1127m / 3698ft | 4 pts | 4 activations</desc>
<sym>Flag, Blue</sym>
</wpt>
<wpt lat="48.8576" lon="20.8693">
<ele>1082.0</ele>
<name>OM/KE-009 Ostrý vrch</name>
<cmt>OM/KE-009</cmt>
<desc>Slovakia | Košický | 1082m / 3550ft | 4 pts | 3 activations</desc>
<sym>Flag, Blue</sym>
</wpt>
<wpt lat="48.7417" lon="20.8117">
<ele>1061.0</ele>
<name>OM/KE-010 Lastovicí vrch</name>
<cmt>OM/KE-010</cmt>
<desc>Slovakia | Košický | 1061m / 3481ft | 4 pts | 8 activations</desc>
<sym>Flag, Blue</sym>
</wpt>
<wpt lat="48.7797" lon="22.3643">
<ele>1025.0</ele>
<name>OM/KE-011 Popriecny vrch</name>
<cmt>OM/KE-011</cmt>
<desc>Slovakia | Košický | 1025m / 3363ft | 4 pts | 1 activations</desc>
<sym>Flag, Blue</sym>
</wpt>
<wpt lat="48.8669" lon="20.804">
<ele>1014.0</ele>
<name>OM/KE-012 Skala</name>
<cmt>OM/KE-012</cmt>
<desc>Slovakia | Košický | 1014m / 3327ft | 4 pts | 2 activations</desc>
<sym>Flag, Blue</sym>
</wpt>
<wpt lat="48.7775" lon="20.3392">
<ele>991.0</ele>
<name>OM/KE-013 Velký Radzim</name>
<cmt>OM/KE-013</cmt>
<desc>Slovakia | Košický | 991m / 3251ft | 4 pts | 2 activations</desc>
<sym>Flag, Blue</sym>
</wpt>
<wpt lat="48.6853" lon="20.4787">
<ele>953.0</ele>
<name>OM/KE-014 Turecká</name>
<cmt>OM/KE-014</cmt>
<desc>Slovakia | Košický | 953m / 3127ft | 4 pts | 4 activations</desc>
<sym>Flag, Blue</sym>
</wpt>
<wpt lat="48.8291" lon="21.0112">
<ele>915.0</ele>
<name>OM/KE-015 Folkmarská skala</name>
<cmt>OM/KE-015</cmt>
<desc>Slovakia | Košický | 915m / 3002ft | 4 pts | 13 activations</desc>
<sym>Flag, Blue</sym>
</wpt>
<wpt lat="48.7951" lon="21.5412">
<ele>911.0</ele>
<name>OM/KE-016 Mošnik</name>
<cmt>OM/KE-016</cmt>
<desc>Slovakia | Košický | 911m / 2989ft | 4 pts | 12 activations</desc>
<sym>Flag, Blue</sym>
</wpt>
<wpt lat="48.5768" lon="21.4582">
<ele>900.0</ele>
<name>OM/KE-017 Velký Milic</name>
<cmt>OM/KE-017</cmt>
<desc>Slovakia | Košický | 900m / 2953ft | 4 pts | 20 activations</desc>
<sym>Flag, Blue</sym>
</wpt>
<wpt lat="48.7011" lon="21.5165">
<ele>856.0</ele>
<name>OM/KE-018 Bogota</name>
<cmt>OM/KE-018</cmt>
<desc>Slovakia | Košický | 856m / 2808ft | 2 pts | 4 activations</desc>
<sym>Flag, Blue</sym>
</wpt>
<wpt lat="48.6531" lon="20.4112">
<ele>851.0</ele>
<name>OM/KE-019 Bucina</name>
<cmt>OM/KE-019</cmt>
<desc>Slovakia | Košický | 851m / 2792ft | 2 pts | 4 activations</desc>
<sym>Flag, Blue</sym>
</wpt>
<wpt lat="48.6461" lon="21.4577">
<ele>708.0</ele>
<name>OM/KE-020 Pod Briežkom</name>
<cmt>OM/KE-020</cmt>
<desc>Slovakia | Košický | 708m / 2323ft | 2 pts | 8 activations</desc>
<sym>Flag, Blue</sym>
</wpt>
<wpt lat="48.576" lon="20.7025">
<ele>611.0</ele>
<name>OM/KE-021 Pavlovský vrch</name>
<cmt>OM/KE-021</cmt>
<desc>Slovakia | Košický | 611m / 2005ft | 1 pts</desc>
<sym>Flag, Blue</sym>
</wpt>
<wpt lat="48.8033" lon="20.1953">
<ele>1402.0</ele>
<name>OM/KE-022 Kyprov</name>
<cmt>OM/KE-022</cmt>
<desc>Slovakia | Košický | 1402m / 4599ft | 6 pts | 3 activations</desc>
<sym>Flag, Blue</sym>
</wpt>
<wpt lat="48.7443" lon="20.575">
<ele>1293.0</ele>
<name>OM/KE-023 Skalisko</name>
<cmt>OM/KE-023</cmt>
<desc>Slovakia | Košický | 1293m / 4242ft | 4 pts | 6 activations</desc>
<sym>Flag, Blue</sym>
</wpt>
<wpt lat="48.7936" lon="20.5324">
<ele>1267.0</ele>
<name>OM/KE-024 Hola</name>
<cmt>OM/KE-024</cmt>
<desc>Slovakia | Košický | 1267m / 4156ft | 4 pts | 2 activations</desc>
<sym>Flag, Blue</sym>
</wpt>
<wpt lat="48.6704" lon="20.7369">
<ele>1185.0</ele>
<name>OM/KE-025 Osadník</name>
<cmt>OM/KE-025</cmt>
<desc>Slovakia | Košický | 1185m / 3887ft | 4 pts | 2 activations</desc>
<sym>Flag, Blue</sym>
</wpt>
<wpt lat="48.8842" lon="20.3316">
<ele>1167.0</ele>
<name>OM/KE-026 Remiaška</name>
<cmt>OM/KE-026</cmt>
<desc>Slovakia | Košický | 1167m / 3828ft | 4 pts | 2 activations</desc>
<sym>Flag, Blue</sym>
</wpt>
<wpt lat="48.8707" lon="20.4198">
<ele>1071.0</ele>
<name>OM/KE-027 Králova hora</name>
<cmt>OM/KE-027</cmt>
<desc>Slovakia | Košický | 1071m / 3513ft | 4 pts | 3 activations</desc>
<sym>Flag, Blue</sym>
</wpt>
<wpt lat="48.9133" lon="20.4004">
<ele>1057.0</ele>
<name>OM/KE-028 Bykárka</name>
<cmt>OM/KE-028</cmt>
<desc>Slovakia | Košický | 1057m / 3467ft | 4 pts | 3 activations</desc>
<sym>Flag, Blue</sym>
</wpt>
<wpt lat="48.8786" lon="20.8888">
<ele>1024.0</ele>
<name>OM/KE-029 Krompašský vrch</name>
<cmt>OM/KE-029</cmt>
<desc>Slovakia | Košický | 1024m / 3359ft | 4 pts | 3 activations</desc>
<sym>Flag, Blue</sym>
</wpt>
<wpt lat="48.8708" lon="22.2521">
<ele>894.0</ele>
<name>OM/KE-030 Jasenovský vrch</name>
<cmt>OM/KE-030</cmt>
<desc>Slovakia | Košický | 894m / 2933ft | 2 pts</desc>
<sym>Flag, Blue</sym>
</wpt>
<wpt lat="48.8314" lon="21.1326">
<ele>887.0</ele>
<name>OM/KE-031 Pokryvy</name>
<cmt>OM/KE-031</cmt>
<desc>Slovakia | Košický | 887m / 2910ft | 2 pts | 5 activations</desc>
<sym>Flag, Blue</sym>
</wpt>
<wpt lat="48.6143" lon="21.4303">
<ele>840.0</ele>
<name>OM/KE-032 Bradlo</name>
<cmt>OM/KE-032</cmt>
<desc>Slovakia | Košický | 840m / 2755ft | 2 pts | 2 activations</desc>
<sym>Flag, Blue</sym>
</wpt>
<wpt lat="48.6259" lon="20.7842">
<ele>831.0</ele>
<name>OM/KE-033 Horny vrch</name>
<cmt>OM/KE-033</cmt>
<desc>Slovakia | Košický | 831m / 2726ft | 2 pts | 4 activations</desc>
<sym>Flag, Blue</sym>
</wpt>
<wpt lat="48.8877" lon="21.0839">
<ele>798.0</ele>
<name>OM/KE-034 Suchý vrch</name>
<cmt>OM/KE-034</cmt>
<desc>Slovakia | Košický | 798m / 2618ft | 2 pts | 2 activations</desc>
<sym>Flag, Blue</sym>
</wpt>
<wpt lat="48.7123" lon="21.083">
<ele>727.0</ele>
<name>OM/KE-035 Holicka</name>
<cmt>OM/KE-035</cmt>
<desc>Slovakia | Košický | 727m / 2385ft | 2 pts | 2 activations</desc>
<sym>Flag, Blue</sym>
</wpt>
<wpt lat="48.4765" lon="21.7068">
<ele>469.0</ele>
<name>OM/KE-036 Rozhladna</name>
<cmt>OM/KE-036</cmt>
<desc>Slovakia | Košický | 469m / 1538ft | 1 pts | 2 activations</desc>
<sym>Flag, Blue</sym>
</wpt>
<wpt lat="48.3626" lon="21.7892">
<ele>277.0</ele>
<name>OM/KE-037 Tarbucka</name>
<cmt>OM/KE-037</cmt>
<desc>Slovakia | Košický | 277m / 908ft | 1 pts | 3 activations</desc>
<sym>Flag, Blue</sym>
</wpt>
<wpt lat="48.4941" lon="21.8127">
<ele>272.0</ele>
<name>OM/KE-038 Velký vrch</name>
<cmt>OM/KE-038</cmt>
<desc>Slovakia | Košický | 272m / 892ft | 1 pts | 3 activations</desc>
<sym>Flag, Blue</sym>
</wpt>
<wpt lat="48.4184" lon="21.9614">
<ele>263.0</ele>
<name>OM/KE-039 Velký Kopec</name>
<cmt>OM/KE-039</cmt>
<desc>Slovakia | Košický | 263m / 862ft | 1 pts | 2 activations</desc>
<sym>Flag, Blue</sym>
</wpt>
<wpt lat="48.4106" lon="18.5437">
<ele>901.0</ele>
<name>OM/NR-001 Velký Inovec</name>
<cmt>OM/NR-001</cmt>
<desc>Slovakia | Nitriansky | 901m / 2956ft | 4 pts | 62 activations</desc>
<sym>Flag, Blue</sym>
</wpt>
<wpt lat="48.4693" lon="18.2395">
<ele>830.0</ele>
<name>OM/NR-002 Velký Tribec</name>
<cmt>OM/NR-002</cmt>
<desc>Slovakia | Nitriansky | 830m / 2723ft | 2 pts | 21 activations</desc>
<sym>Flag, Blue</sym>
</wpt>
<wpt lat="48.5441" lon="18.4887">
<ele>745.0</ele>
<name>OM/NR-003 Velká Ostrá</name>
<cmt>OM/NR-003</cmt>
<desc>Slovakia | Nitriansky | 745m / 2444ft | 2 pts | 14 activations</desc>
<sym>Flag, Blue</sym>
</wpt>
<wpt lat="48.3674" lon="18.1516">
<ele>616.0</ele>
<name>OM/NR-004 Žibrica</name>
<cmt>OM/NR-004</cmt>
<desc>Slovakia | Nitriansky | 616m / 2020ft | 1 pts | 21 activations</desc>
<sym>Flag, Blue</sym>
</wpt>
<wpt lat="48.3466" lon="18.1087">
<ele>586.0</ele>
<name>OM/NR-005 Zobor</name>
<cmt>OM/NR-005</cmt>
<desc>Slovakia | Nitriansky | 586m / 1922ft | 1 pts | 32 activations</desc>
<sym>Flag, Blue</sym>
</wpt>
<wpt lat="48.4316" lon="18.2535">
<ele>576.0</ele>
<name>OM/NR-006 Ploská</name>
<cmt>OM/NR-006</cmt>
<desc>Slovakia | Nitriansky | 576m / 1889ft | 1 pts | 14 activations</desc>
<sym>Flag, Blue</sym>
</wpt>
<wpt lat="48.4111" lon="18.2223">
<ele>513.0</ele>
<name>OM/NR-007 Dún</name>
<cmt>OM/NR-007</cmt>
<desc>Slovakia | Nitriansky | 513m / 1683ft | 1 pts | 18 activations</desc>
<sym>Flag, Blue</sym>
</wpt>
<wpt lat="47.8327" lon="18.7808">
<ele>395.0</ele>
<name>OM/NR-008 Burdov</name>
<cmt>OM/NR-008</cmt>
<desc>Slovakia | Nitriansky | 395m / 1295ft | 1 pts | 12 activations</desc>
<sym>Flag, Blue</sym>
</wpt>
<wpt lat="49.1641" lon="20.134">
<ele>2654.0</ele>
<name>OM/PO-001 Gerlachovský štít</name>
<cmt>OM/PO-001</cmt>
<desc>Slovakia | Prešovský | 2654m / 8707ft | 10 pts | 18 activations</desc>
<sym>Flag, Blue</sym>
</wpt>
<wpt lat="49.1952" lon="20.213">
<ele>2634.0</ele>
<name>OM/PO-002 Lomnický štít</name>
<cmt>OM/PO-002</cmt>
<desc>Slovakia | Prešovský | 2634m / 8642ft | 10 pts | 14 activations</desc>
<sym>Flag, Blue</sym>
</wpt>
<wpt lat="49.1987" lon="20.1828">
<ele>2627.0</ele>
<name>OM/PO-003 Ľadový štít</name>
<cmt>OM/PO-003</cmt>
<desc>Slovakia | Prešovský | 2627m / 8619ft | 10 pts | 5 activations</desc>
<sym>Flag, Blue</sym>
</wpt>
<wpt lat="49.1727" lon="20.0942">
<ele>2547.0</ele>
<name>OM/PO-004 Vysoká</name>
<cmt>OM/PO-004</cmt>
<desc>Slovakia | Prešovský | 2547m / 8356ft | 10 pts | 12 activations</desc>
<sym>Flag, Blue</sym>
</wpt>
<wpt lat="49.1575" lon="20.1138">
<ele>2538.0</ele>
<name>OM/PO-005 Končistá</name>
<cmt>OM/PO-005</cmt>
<desc>Slovakia | Prešovský | 2538m / 8327ft | 10 pts | 8 activations</desc>
<sym>Flag, Blue</sym>
</wpt>
<wpt lat="49.163" lon="20.0003">
<ele>2494.0</ele>
<name>OM/PO-006 Kriváň</name>
<cmt>OM/PO-006</cmt>
<desc>Slovakia | Prešovský | 2494m / 8182ft | 10 pts | 43 activations</desc>
<sym>Flag, Blue</sym>
</wpt>
<wpt lat="49.1713" lon="20.1558">
<ele>2476.0</ele>
<name>OM/PO-007 Bradavica</name>
<cmt>OM/PO-007</cmt>
<desc>Slovakia | Prešovský | 2476m / 8123ft | 10 pts | 4 activations</desc>
<sym>Flag, Blue</sym>
</wpt>
<wpt lat="49.1872" lon="20.0597">
<ele>2432.0</ele>
<name>OM/PO-008 Mengusovský štít</name>
<cmt>OM/PO-008</cmt>
<desc>Slovakia | Prešovský | 2432m / 7979ft | 10 pts | 2 activations</desc>
<sym>Flag, Blue</sym>
</wpt>
<wpt lat="49.1708" lon="20.0267">
<ele>2428.0</ele>
<name>OM/PO-009 Hrubý vrch</name>
<cmt>OM/PO-009</cmt>
<desc>Slovakia | Prešovský | 2428m / 7966ft | 10 pts | 7 activations</desc>
<sym>Flag, Blue</sym>
</wpt>
<wpt lat="49.2195" lon="20.0092">
<ele>2301.0</ele>
<name>OM/PO-010 Svinica</name>
<cmt>OM/PO-010</cmt>
<desc>Slovakia | Prešovský | 2301m / 7549ft | 10 pts | 7 activations</desc>
<sym>Flag, Blue</sym>
</wpt>
<wpt lat="49.2485" lon="20.1977">
<ele>2152.0</ele>
<name>OM/PO-011 Havran</name>
<cmt>OM/PO-011</cmt>
<desc>Slovakia | Prešovský | 2152m / 7060ft | 10 pts | 1 activations</desc>
<sym>Flag, Blue</sym>
</wpt>
<wpt lat="49.196" lon="19.8695">
<ele>2127.0</ele>
<name>OM/PO-012 Veľká Kamenistá</name>
<cmt>OM/PO-012</cmt>
<desc>Slovakia | Prešovský | 2127m / 6978ft | 10 pts | 12 activations</desc>
<sym>Flag, Blue</sym>
</wpt>
<wpt lat="49.2316" lon="19.9098">
<ele>2122.0</ele>
<name>OM/PO-013 Kresanica</name>
<cmt>OM/PO-013</cmt>
<desc>Slovakia | Prešovský | 2122m / 6962ft | 10 pts | 57 activations</desc>
<sym>Flag, Blue</sym>
</wpt>
<wpt lat="49.2369" lon="20.2203">
<ele>2061.0</ele>
<name>OM/PO-014 Hlúpy</name>
<cmt>OM/PO-014</cmt>
<desc>Slovakia | Prešovský | 2061m / 6762ft | 10 pts | 5 activations</desc>
<sym>Flag, Blue</sym>
</wpt>
<wpt lat="49.1931" lon="20.624">
<ele>1289.0</ele>
<name>OM/PO-015 Čierna hora</name>
<cmt>OM/PO-015</cmt>
<desc>Slovakia | Prešovský | 1289m / 4229ft | 4 pts | 3 activations</desc>
<sym>Flag, Blue</sym>
</wpt>
<wpt lat="49.2039" lon="20.7273">
<ele>1287.0</ele>
<name>OM/PO-016 Siminy</name>
<cmt>OM/PO-016</cmt>
<desc>Slovakia | Prešovský | 1287m / 4222ft | 4 pts | 4 activations</desc>
<sym>Flag, Blue</sym>
</wpt>
<wpt lat="49.0165" lon="20.161">
<ele>1255.0</ele>
<name>OM/PO-017 Kozí kameň</name>
<cmt>OM/PO-017</cmt>
<desc>Slovakia | Prešovský | 1255m / 4117ft | 4 pts | 14 activations</desc>
<sym>Flag, Blue</sym>
</wpt>
<wpt lat="49.0466" lon="20.8713">
<ele>1199.0</ele>
<name>OM/PO-018 Smrekovica</name>
<cmt>OM/PO-018</cmt>
<desc>Slovakia | Prešovský | 1199m / 3934ft | 4 pts | 14 activations</desc>
<sym>Flag, Blue</sym>
</wpt>
<wpt lat="49.2346" lon="20.9892">
<ele>1157.0</ele>
<name>OM/PO-019 Minčol</name>
<cmt>OM/PO-019</cmt>
<desc>Slovakia | Prešovský | 1157m / 3796ft | 4 pts | 8 activations</desc>
<sym>Flag, Blue</sym>
</wpt>
<wpt lat="49.3357" lon="20.51">
<ele>1111.0</ele>
<name>OM/PO-020 Veterný vrch</name>
<cmt>OM/PO-020</cmt>
<desc>Slovakia | Prešovský | 1111m / 3645ft | 4 pts | 12 activations</desc>
<sym>Flag, Blue</sym>
</wpt>
<wpt lat="49.1988" lon="21.1463">
<ele>1098.0</ele>
<name>OM/PO-021 Veľká Javorina</name>
<cmt>OM/PO-021</cmt>
<desc>Slovakia | Prešovský | 1098m / 3602ft | 4 pts | 6 activations</desc>
<sym>Flag, Blue</sym>
</wpt>
<wpt lat="49.0001" lon="22.5252">
<ele>1093.0</ele>
<name>OM/PO-022 Stinská</name>
<cmt>OM/PO-022</cmt>
<desc>Slovakia | Prešovský | 1093m / 3586ft | 4 pts | 1 activations</desc>
<sym>Flag, Blue</sym>
</wpt>
<wpt lat="48.9453" lon="21.4672">
<ele>1092.0</ele>
<name>OM/PO-023 Šimonka</name>
<cmt>OM/PO-023</cmt>
<desc>Slovakia | Prešovský | 1092m / 3583ft | 4 pts | 15 activations</desc>
<sym>Flag, Blue</sym>
</wpt>
<wpt lat="49.0905" lon="20.9228">
<ele>1081.0</ele>
<name>OM/PO-024 Bachureň</name>
<cmt>OM/PO-024</cmt>
<desc>Slovakia | Prešovský | 1081m / 3547ft | 4 pts | 11 activations</desc>
<sym>Flag, Blue</sym>
</wpt>
<wpt lat="48.8914" lon="22.1133">
<ele>1076.0</ele>
<name>OM/PO-025 Vihorlat</name>
<cmt>OM/PO-025</cmt>
<desc>Slovakia | Prešovský | 1076m / 3530ft | 4 pts | 1 activations</desc>
<sym>Flag, Blue</sym>
</wpt>
<wpt lat="49.1325" lon="20.7537">
<ele>1074.0</ele>
<name>OM/PO-026 Javorinka</name>
<cmt>OM/PO-026</cmt>
<desc>Slovakia | Prešovský | 1074m / 3524ft | 4 pts | 1 activations</desc>
<sym>Flag, Blue</sym>
</wpt>
<wpt lat="48.9697" lon="21.425">
<ele>1073.0</ele>
<name>OM/PO-027 Čierna hora</name>
<cmt>OM/PO-027</cmt>
<desc>Slovakia | Prešovský | 1073m / 3520ft | 4 pts | 6 activations</desc>
<sym>Flag, Blue</sym>
</wpt>
<wpt lat="49.3803" lon="20.5553">
<ele>1050.0</ele>
<name>OM/PO-028 Vysoké skalky</name>
<cmt>OM/PO-028</cmt>
<desc>Slovakia | Prešovský | 1050m / 3445ft | 4 pts | 29 activations</desc>
<sym>Flag, Blue</sym>
</wpt>
<wpt lat="48.924" lon="21.0127">
<ele>1029.0</ele>
<name>OM/PO-029 Roháčka</name>
<cmt>OM/PO-029</cmt>
<desc>Slovakia | Prešovský | 1029m / 3376ft | 4 pts | 4 activations</desc>
<sym>Flag, Blue</sym>
</wpt>
<wpt lat="48.9279" lon="22.2293">
<ele>1023.0</ele>
<name>OM/PO-030 Nežabec</name>
<cmt>OM/PO-030</cmt>
<desc>Slovakia | Prešovský | 1023m / 3356ft | 4 pts | 3 activations</desc>
<sym>Flag, Blue</sym>
</wpt>
<wpt lat="49.143" lon="22.2803">
<ele>1011.0</ele>
<name>OM/PO-031 Strop</name>
<cmt>OM/PO-031</cmt>
<desc>Slovakia | Prešovský | 1011m / 3317ft | 4 pts | 6 activations</desc>
<sym>Flag, Blue</sym>
</wpt>
<wpt lat="49.3883" lon="21.1625">
<ele>1002.0</ele>
<name>OM/PO-032 Busov</name>
<cmt>OM/PO-032</cmt>
<desc>Slovakia | Prešovský | 1002m / 3287ft | 4 pts | 8 activations</desc>
<sym>Flag, Blue</sym>
</wpt>
<wpt lat="49.4267" lon="21.1025">
<ele>997.0</ele>
<name>OM/PO-033 Lackova</name>
<cmt>OM/PO-033</cmt>
<desc>Slovakia | Prešovský | 997m / 3271ft | 4 pts | 8 activations</desc>
<sym>Flag, Blue</sym>
</wpt>
<wpt lat="48.8523" lon="21.4917">
<ele>981.0</ele>
<name>OM/PO-034 Makovica</name>
<cmt>OM/PO-034</cmt>
<desc>Slovakia | Prešovský | 981m / 3219ft | 4 pts | 8 activations</desc>
<sym>Flag, Blue</sym>
</wpt>
<wpt lat="49.0458" lon="22.3985">
<ele>934.0</ele>
<name>OM/PO-035 Stolová</name>
<cmt>OM/PO-035</cmt>
<desc>Slovakia | Prešovský | 934m / 3064ft | 4 pts | 1 activations</desc>
<sym>Flag, Blue</sym>
</wpt>
<wpt lat="48.9735" lon="21.473">
<ele>925.0</ele>
<name>OM/PO-036 Oblík</name>
<cmt>OM/PO-036</cmt>
<desc>Slovakia | Prešovský | 925m / 3035ft | 4 pts | 5 activations</desc>
<sym>Flag, Blue</sym>
</wpt>
<wpt lat="49.0698" lon="22.341">
<ele>921.0</ele>
<name>OM/PO-037 Hajdošik</name>
<cmt>OM/PO-037</cmt>
<desc>Slovakia | Prešovský | 921m / 3022ft | 4 pts | 1 activations</desc>
<sym>Flag, Blue</sym>
</wpt>
<wpt lat="49.3607" lon="21.2453">
<ele>899.0</ele>
<name>OM/PO-038 Stebnícka Magura</name>
<cmt>OM/PO-038</cmt>
<desc>Slovakia | Prešovský | 899m / 2949ft | 2 pts | 7 activations</desc>
<sym>Flag, Blue</sym>
</wpt>
<wpt lat="49.3165" lon="20.8733">
<ele>893.0</ele>
<name>OM/PO-039 Kurčínska Magura</name>
<cmt>OM/PO-039</cmt>
<desc>Slovakia | Prešovský | 893m / 2930ft | 2 pts | 4 activations</desc>
<sym>Flag, Blue</sym>
</wpt>
<wpt lat="49.4473" lon="21.2637">
<ele>881.0</ele>
<name>OM/PO-040 Javorina</name>
<cmt>OM/PO-040</cmt>
<desc>Slovakia | Prešovský | 881m / 2890ft | 2 pts | 25 activations</desc>
<sym>Flag, Blue</sym>
</wpt>
<wpt lat="48.8557" lon="22.0148">
<ele>821.0</ele>
<name>OM/PO-041 Kyjov</name>
<cmt>OM/PO-041</cmt>
<desc>Slovakia | Prešovský | 821m / 2694ft | 2 pts | 2 activations</desc>
<sym>Flag, Blue</sym>
</wpt>
<wpt lat="49.0314" lon="22.2992">
<ele>800.0</ele>
<name>OM/PO-042 Stredný gruň</name>
<cmt>OM/PO-042</cmt>
<desc>Slovakia | Prešovský | 800m / 2625ft | 2 pts | 3 activations</desc>
<sym>Flag, Blue</sym>
</wpt>
<wpt lat="49.4369" lon="21.5975">
<ele>754.0</ele>
<name>OM/PO-043 Stavok (Baranie)</name>
<cmt>OM/PO-043</cmt>
<desc>Slovakia | Prešovský | 754m / 2474ft | 2 pts | 6 activations</desc>
<sym>Flag, Blue</sym>
</wpt>
<wpt lat="49.4073" lon="21.3398">
<ele>749.0</ele>
<name>OM/PO-044 Smilniansky vrch</name>
<cmt>OM/PO-044</cmt>
<desc>Slovakia | Prešovský | 749m / 2457ft | 2 pts | 1 activations</desc>
<sym>Flag, Blue</sym>
</wpt>
<wpt lat="49.0644" lon="21.256">
<ele>739.0</ele>
<name>OM/PO-045 Stráž</name>
<cmt>OM/PO-045</cmt>
<desc>Slovakia | Prešovský | 739m / 2425ft | 2 pts | 7 activations</desc>
<sym>Flag, Blue</sym>
</wpt>
<wpt lat="49.0842" lon="21.23">
<ele>696.0</ele>
<name>OM/PO-046 Lysá Stráž</name>
<cmt>OM/PO-046</cmt>
<desc>Slovakia | Prešovský | 696m / 2283ft | 1 pts | 3 activations</desc>
<sym>Flag, Blue</sym>
</wpt>
<wpt lat="48.8792" lon="21.1875">
<ele>685.0</ele>
<name>OM/PO-047 Tlstá</name>
<cmt>OM/PO-047</cmt>
<desc>Slovakia | Prešovský | 685m / 2247ft | 1 pts | 1 activations</desc>
<sym>Flag, Blue</sym>
</wpt>
<wpt lat="49.1397" lon="22.0402">
<ele>671.0</ele>
<name>OM/PO-048 Černiny</name>
<cmt>OM/PO-048</cmt>
<desc>Slovakia | Prešovský | 671m / 2201ft | 1 pts | 1 activations</desc>
<sym>Flag, Blue</sym>
</wpt>
<wpt lat="49.3026" lon="21.5083">
<ele>667.0</ele>
<name>OM/PO-049 Čierna hora</name>
<cmt>OM/PO-049</cmt>
<desc>Slovakia | Prešovský | 667m / 2188ft | 1 pts | 2 activations</desc>
<sym>Flag, Blue</sym>
</wpt>
<wpt lat="49.1019" lon="21.3782">
<ele>642.0</ele>
<name>OM/PO-050 Haľagoš</name>
<cmt>OM/PO-050</cmt>
<desc>Slovakia | Prešovský | 642m / 2106ft | 1 pts | 7 activations</desc>
<sym>Flag, Blue</sym>
</wpt>
<wpt lat="49.3476" lon="21.3077">
<ele>620.0</ele>
<name>OM/PO-051 Jedlina</name>
<cmt>OM/PO-051</cmt>
<desc>Slovakia | Prešovský | 620m / 2034ft | 1 pts | 2 activations</desc>
<sym>Flag, Blue</sym>
</wpt>
<wpt lat="49.052" lon="21.1765">
<ele>570.0</ele>
<name>OM/PO-052 Šarišský hrad</name>
<cmt>OM/PO-052</cmt>
<desc>Slovakia | Prešovský | 570m / 1870ft | 1 pts | 6 activations</desc>
<sym>Flag, Blue</sym>
</wpt>
<wpt lat="49.1668" lon="21.7678">
<ele>555.0</ele>
<name>OM/PO-053 Lipovica</name>
<cmt>OM/PO-053</cmt>
<desc>Slovakia | Prešovský | 555m / 1821ft | 1 pts | 1 activations</desc>
<sym>Flag, Blue</sym>
</wpt>
<wpt lat="49.204" lon="19.8814">
<ele>2068.0</ele>
<name>OM/PO-054 Smrečiny</name>
<cmt>OM/PO-054</cmt>
<desc>Slovakia | Prešovský | 2068m / 6784ft | 10 pts | 9 activations</desc>
<sym>Flag, Blue</sym>
</wpt>
<wpt lat="49.2006" lon="19.9744">
<ele>2052.0</ele>
<name>OM/PO-055 Veľká Kopa</name>
<cmt>OM/PO-055</cmt>
<desc>Slovakia | Prešovský | 2052m / 6732ft | 10 pts | 2 activations</desc>
<sym>Flag, Blue</sym>
</wpt>
<wpt lat="49.1969" lon="19.9431">
<ele>1859.0</ele>
<name>OM/PO-056 Veľká Brdárová grapa</name>
<cmt>OM/PO-056</cmt>
<desc>Slovakia | Prešovský | 1859m / 6099ft | 10 pts | 1 activations</desc>
<sym>Flag, Blue</sym>
</wpt>
<wpt lat="49.2379" lon="20.1507">
<ele>1522.0</ele>
<name>OM/PO-057 Suchý vrch</name>
<cmt>OM/PO-057</cmt>
<desc>Slovakia | Prešovský | 1522m / 4993ft | 6 pts | 1 activations</desc>
<sym>Flag, Blue</sym>
</wpt>
<wpt lat="49.2921" lon="20.1987">
<ele>1259.0</ele>
<name>OM/PO-058 Repisko</name>
<cmt>OM/PO-058</cmt>
<desc>Slovakia | Prešovský | 1259m / 4130ft | 4 pts | 12 activations</desc>
<sym>Flag, Blue</sym>
</wpt>
<wpt lat="49.0217" lon="20.0162">
<ele>1111.0</ele>
<name>OM/PO-059 Brada</name>
<cmt>OM/PO-059</cmt>
<desc>Slovakia | Prešovský | 1111m / 3645ft | 4 pts | 5 activations</desc>
<sym>Flag, Blue</sym>
</wpt>
<wpt lat="48.936" lon="20.3028">
<ele>1056.0</ele>
<name>OM/PO-060 Tri kopce</name>
<cmt>OM/PO-060</cmt>
<desc>Slovakia | Prešovský | 1056m / 3464ft | 4 pts | 4 activations</desc>
<sym>Flag, Blue</sym>
</wpt>
<wpt lat="48.9895" lon="21.4092">
<ele>1025.0</ele>
<name>OM/PO-061 Tri chotáre</name>
<cmt>OM/PO-061</cmt>
<desc>Slovakia | Prešovský | 1025m / 3362ft | 4 pts | 3 activations</desc>
<sym>Flag, Blue</sym>
</wpt>
<wpt lat="49.0165" lon="20.2651">
<ele>941.0</ele>
<name>OM/PO-062 Krížová</name>
<cmt>OM/PO-062</cmt>
<desc>Slovakia | Prešovský | 941m / 3087ft | 4 pts | 18 activations</desc>
<sym>Flag, Blue</sym>
</wpt>
<wpt lat="49.2629" lon="20.4522">
<ele>930.0</ele>
<name>OM/PO-063 Vojnianská hora</name>
<cmt>OM/PO-063</cmt>
<desc>Slovakia | Prešovský | 930m / 3051ft | 4 pts | 11 activations</desc>
<sym>Flag, Blue</sym>
</wpt>
<wpt lat="49.3875" lon="20.4535">
<ele>889.0</ele>
<name>OM/PO-064 Plašná</name>
<cmt>OM/PO-064</cmt>
<desc>Slovakia | Prešovský | 889m / 2916ft | 2 pts | 11 activations</desc>
<sym>Flag, Blue</sym>
</wpt>
<wpt lat="48.9402" lon="21.4073">
<ele>868.0</ele>
<name>OM/PO-065 Bodoň</name>
<cmt>OM/PO-065</cmt>
<desc>Slovakia | Prešovský | 868m / 2847ft | 2 pts | 1 activations</desc>
<sym>Flag, Blue</sym>
</wpt>
<wpt lat="49.1378" lon="22.2058">
<ele>857.0</ele>
<name>OM/PO-066 Skory</name>
<cmt>OM/PO-066</cmt>
<desc>Slovakia | Prešovský | 857m / 2811ft | 2 pts | 1 activations</desc>
<sym>Flag, Blue</sym>
</wpt>
<wpt lat="49.4081" lon="20.4466">
<ele>828.0</ele>
<name>OM/PO-067 Holica</name>
<cmt>OM/PO-067</cmt>
<desc>Slovakia | Prešovský | 828m / 2716ft | 2 pts | 5 activations</desc>
<sym>Flag, Blue</sym>
</wpt>
<wpt lat="49.3784" lon="20.7326">
<ele>827.0</ele>
<name>OM/PO-068 Soľovka</name>
<cmt>OM/PO-068</cmt>
<desc>Slovakia | Prešovský | 827m / 2713ft | 2 pts | 6 activations</desc>
<sym>Flag, Blue</sym>
</wpt>
<wpt lat="49.2082" lon="20.8659">
<ele>824.0</ele>
<name>OM/PO-069 Kňazová</name>
<cmt>OM/PO-069</cmt>
<desc>Slovakia | Prešovský | 824m / 2703ft | 2 pts | 6 activations</desc>
<sym>Flag, Blue</sym>
</wpt>
<wpt lat="49.0977" lon="22.2575">
<ele>725.0</ele>
<name>OM/PO-070 Borsuk</name>
<cmt>OM/PO-070</cmt>
<desc>Slovakia | Prešovský | 725m / 2378ft | 2 pts | 1 activations</desc>
<sym>Flag, Blue</sym>
</wpt>
<wpt lat="49.2995" lon="21.8622">
<ele>683.0</ele>
<name>OM/PO-071 Brúsy</name>
<cmt>OM/PO-071</cmt>
<desc>Slovakia | Prešovský | 683m / 2240ft | 1 pts | 1 activations</desc>
<sym>Flag, Blue</sym>
</wpt>
<wpt lat="49.0988" lon="22.1202">
<ele>682.0</ele>
<name>OM/PO-072 Príkra</name>
<cmt>OM/PO-072</cmt>
<desc>Slovakia | Prešovský | 682m / 2237ft | 1 pts | 1 activations</desc>
<sym>Flag, Blue</sym>
</wpt>
<wpt lat="49.3225" lon="21.3668">
<ele>676.0</ele>
<name>OM/PO-073 Kačalová</name>
<cmt>OM/PO-073</cmt>
<desc>Slovakia | Prešovský | 676m / 2217ft | 1 pts | 1 activations</desc>
<sym>Flag, Blue</sym>
</wpt>
<wpt lat="49.3273" lon="21.6835">
<ele>650.0</ele>
<name>OM/PO-074 Pacutová</name>
<cmt>OM/PO-074</cmt>
<desc>Slovakia | Prešovský | 650m / 2132ft | 1 pts | 1 activations</desc>
<sym>Flag, Blue</sym>
</wpt>
<wpt lat="49.3869" lon="21.4136">
<ele>647.0</ele>
<name>OM/PO-075 Kaštielik</name>
<cmt>OM/PO-075</cmt>
<desc>Slovakia | Prešovský | 647m / 2122ft | 1 pts | 2 activations</desc>
<sym>Flag, Blue</sym>
</wpt>
<wpt lat="49.1973" lon="21.9721">
<ele>637.0</ele>
<name>OM/PO-076 Kobyla</name>
<cmt>OM/PO-076</cmt>
<desc>Slovakia | Prešovský | 637m / 2089ft | 1 pts | 1 activations</desc>
<sym>Flag, Blue</sym>
</wpt>
<wpt lat="49.3068" lon="21.1671">
<ele>591.0</ele>
<name>OM/PO-077 Barvienok</name>
<cmt>OM/PO-077</cmt>
<desc>Slovakia | Prešovský | 591m / 1938ft | 1 pts | 3 activations</desc>
<sym>Flag, Blue</sym>
</wpt>
<wpt lat="48.8776" lon="22.3947">
<ele>581.0</ele>
<name>OM/PO-078 Kosmatec</name>
<cmt>OM/PO-078</cmt>
<desc>Slovakia | Prešovský | 581m / 1906ft | 1 pts | 4 activations</desc>
<sym>Flag, Blue</sym>
</wpt>
<wpt lat="49.2418" lon="21.3201">
<ele>557.0</ele>
<name>OM/PO-079 Šipotská hora</name>
<cmt>OM/PO-079</cmt>
<desc>Slovakia | Prešovský | 557m / 1827ft | 1 pts | 4 activations</desc>
<sym>Flag, Blue</sym>
</wpt>
<wpt lat="48.8927" lon="21.8683">
<ele>549.0</ele>
<name>OM/PO-080 Krivoštianka</name>
<cmt>OM/PO-080</cmt>
<desc>Slovakia | Prešovský | 549m / 1801ft | 1 pts | 2 activations</desc>
<sym>Flag, Blue</sym>
</wpt>
<wpt lat="49.1053" lon="21.8703">
<ele>547.0</ele>
<name>OM/PO-081 Vysoká</name>
<cmt>OM/PO-081</cmt>
<desc>Slovakia | Prešovský | 547m / 1794ft | 1 pts | 2 activations</desc>
<sym>Flag, Blue</sym>
</wpt>
<wpt lat="49.0311" lon="21.5965">
<ele>533.0</ele>
<name>OM/PO-082 Kunová hora</name>
<cmt>OM/PO-082</cmt>
<desc>Slovakia | Prešovský | 533m / 1748ft | 1 pts | 2 activations</desc>
<sym>Flag, Blue</sym>
</wpt>
<wpt lat="49.0088" lon="22.1163">
<ele>532.0</ele>
<name>OM/PO-083 Patria</name>
<cmt>OM/PO-083</cmt>
<desc>Slovakia | Prešovský | 532m / 1745ft | 1 pts | 1 activations</desc>
<sym>Flag, Blue</sym>
</wpt>
<wpt lat="49.2149" lon="21.5949">
<ele>523.0</ele>
<name>OM/PO-084 Baňa</name>
<cmt>OM/PO-084</cmt>
<desc>Slovakia | Prešovský | 523m / 1715ft | 1 pts | 2 activations</desc>
<sym>Flag, Blue</sym>
</wpt>
<wpt lat="49.0342" lon="22.0089">
<ele>523.0</ele>
<name>OM/PO-085 Suchár</name>
<cmt>OM/PO-085</cmt>
<desc>Slovakia | Prešovský | 523m / 1715ft | 1 pts | 1 activations</desc>
<sym>Flag, Blue</sym>
</wpt>
<wpt lat="49.305" lon="21.6065">
<ele>512.0</ele>
<name>OM/PO-086 Kolesovka</name>
<cmt>OM/PO-086</cmt>
<desc>Slovakia | Prešovský | 512m / 1679ft | 1 pts | 1 activations</desc>
<sym>Flag, Blue</sym>
</wpt>
<wpt lat="49.1408" lon="21.5929">
<ele>472.0</ele>
<name>OM/PO-087 Muchova Hora</name>
<cmt>OM/PO-087</cmt>
<desc>Slovakia | Prešovský | 472m / 1548ft | 1 pts | 1 activations</desc>
<sym>Flag, Blue</sym>
</wpt>
<wpt lat="48.9064" lon="21.9245">
<ele>447.0</ele>
<name>OM/PO-088 Červená skala</name>
<cmt>OM/PO-088</cmt>
<desc>Slovakia | Prešovský | 447m / 1466ft | 1 pts | 1 activations</desc>
<sym>Flag, Blue</sym>
</wpt>
<wpt lat="48.9113" lon="21.948">
<ele>444.0</ele>
<name>OM/PO-089 Humenská</name>
<cmt>OM/PO-089</cmt>
<desc>Slovakia | Prešovský | 444m / 1456ft | 1 pts | 1 activations</desc>
<sym>Flag, Blue</sym>
</wpt>
<wpt lat="48.9775" lon="21.78">
<ele>400.0</ele>
<name>OM/PO-090 Hrb</name>
<cmt>OM/PO-090</cmt>
<desc>Slovakia | Prešovský | 400m / 1312ft | 1 pts | 2 activations</desc>
<sym>Flag, Blue</sym>
</wpt>
<wpt lat="48.8984" lon="21.8283">
<ele>338.0</ele>
<name>OM/PO-091 Klokočiny</name>
<cmt>OM/PO-091</cmt>
<desc>Slovakia | Prešovský | 338m / 1108ft | 1 pts | 3 activations</desc>
<sym>Flag, Blue</sym>
</wpt>
<wpt lat="49.1793" lon="20.0884">
<ele>2503.0</ele>
<name>OM/PO-092 Rysy</name>
<cmt>OM/PO-092</cmt>
<desc>Slovakia | Prešovský | 2503m / 8212ft | 10 pts | 36 activations</desc>
<sym>Flag, Blue</sym>
</wpt>
<wpt lat="48.6248" lon="18.6347">
<ele>1346.0</ele>
<name>OM/TN-001 Vtácnik</name>
<cmt>OM/TN-001</cmt>
<desc>Slovakia | Trenciansky | 1346m / 4416ft | 6 pts | 49 activations</desc>
<sym>Flag, Blue</sym>
</wpt>
<wpt lat="48.8679" lon="18.5293">
<ele>1141.0</ele>
<name>OM/TN-002 Magura</name>
<cmt>OM/TN-002</cmt>
<desc>Slovakia | Trenciansky | 1141m / 3743ft | 4 pts | 16 activations</desc>
<sym>Flag, Blue</sym>
</wpt>
<wpt lat="48.9568" lon="18.6008">
<ele>1073.0</ele>
<name>OM/TN-003 Homôlka</name>
<cmt>OM/TN-003</cmt>
<desc>Slovakia | Trenciansky | 1073m / 3520ft | 4 pts | 59 activations</desc>
<sym>Flag, Blue</sym>
</wpt>
<wpt lat="48.7748" lon="18.0412">
<ele>1042.0</ele>
<name>OM/TN-004 Inovec</name>
<cmt>OM/TN-004</cmt>
<desc>Slovakia | Trenciansky | 1042m / 3419ft | 4 pts | 62 activations</desc>
<sym>Flag, Blue</sym>
</wpt>
<wpt lat="48.841" lon="18.4193">
<ele>1028.0</ele>
<name>OM/TN-005 Suchý vrch</name>
<cmt>OM/TN-005</cmt>
<desc>Slovakia | Trenciansky | 1028m / 3373ft | 4 pts | 17 activations</desc>
<sym>Flag, Blue</sym>
</wpt>
<wpt lat="48.771" lon="18.4343">
<ele>1010.0</ele>
<name>OM/TN-006 Rokoš</name>
<cmt>OM/TN-006</cmt>
<desc>Slovakia | Trenciansky | 1010m / 3314ft | 4 pts | 23 activations</desc>
<sym>Flag, Blue</sym>
</wpt>
<wpt lat="48.9694" lon="18.4305">
<ele>1010.0</ele>
<name>OM/TN-007 Javorina</name>
<cmt>OM/TN-007</cmt>
<desc>Slovakia | Trenciansky | 1010m / 3314ft | 4 pts | 18 activations</desc>
<sym>Flag, Blue</sym>
</wpt>
<wpt lat="48.8151" lon="18.4085">
<ele>997.0</ele>
<name>OM/TN-008 Cierny vrch</name>
<cmt>OM/TN-008</cmt>
<desc>Slovakia | Trenciansky | 997m / 3271ft | 4 pts | 24 activations</desc>
<sym>Flag, Blue</sym>
</wpt>
<wpt lat="48.9257" lon="18.3553">
<ele>986.0</ele>
<name>OM/TN-009 Suchá hora</name>
<cmt>OM/TN-009</cmt>
<desc>Slovakia | Trenciansky | 986m / 3235ft | 4 pts | 19 activations</desc>
<sym>Flag, Blue</sym>
</wpt>
<wpt lat="48.8579" lon="17.6762">
<ele>970.0</ele>
<name>OM/TN-010 Velká Javorina</name>
<cmt>OM/TN-010</cmt>
<desc>Slovakia | Trenciansky | 970m / 3182ft | 4 pts | 153 activations</desc>
<sym>Flag, Blue</sym>
</wpt>
<wpt lat="49.0744" lon="18.1538">
<ele>925.0</ele>
<name>OM/TN-011 Chmelová</name>
<cmt>OM/TN-011</cmt>
<desc>Slovakia | Trenciansky | 925m / 3035ft | 4 pts | 59 activations</desc>
<sym>Flag, Blue</sym>
</wpt>
<wpt lat="49.2609" lon="18.1625">
<ele>923.0</ele>
<name>OM/TN-012 Makyta</name>
<cmt>OM/TN-012</cmt>
<desc>Slovakia | Trenciansky | 923m / 3028ft | 4 pts | 34 activations</desc>
<sym>Flag, Blue</sym>
</wpt>
<wpt lat="48.9167" lon="17.7825">
<ele>911.0</ele>
<name>OM/TN-013 Velký Lopeník</name>
<cmt>OM/TN-013</cmt>
<desc>Slovakia | Trenciansky | 911m / 2989ft | 4 pts | 99 activations</desc>
<sym>Flag, Blue</sym>
</wpt>
<wpt lat="49.1195" lon="18.1652">
<ele>911.0</ele>
<name>OM/TN-014 Kobylinec</name>
<cmt>OM/TN-014</cmt>
<desc>Slovakia | Trenciansky | 911m / 2989ft | 4 pts | 12 activations</desc>
<sym>Flag, Blue</sym>
</wpt>
<wpt lat="48.9291" lon="18.2842">
<ele>911.0</ele>
<name>OM/TN-015 Holazne</name>
<cmt>OM/TN-015</cmt>
<desc>Slovakia | Trenciansky | 911m / 2989ft | 4 pts | 20 activations</desc>
<sym>Flag, Blue</sym>
</wpt>
<wpt lat="49.0221" lon="18.407">
<ele>909.0</ele>
<name>OM/TN-016 Ostrá Malenica</name>
<cmt>OM/TN-016</cmt>
<desc>Slovakia | Trenciansky | 909m / 2982ft | 4 pts | 14 activations</desc>
<sym>Flag, Blue</sym>
</wpt>
<wpt lat="48.9344" lon="18.4477">
<ele>892.0</ele>
<name>OM/TN-017 Javorinka</name>
<cmt>OM/TN-017</cmt>
<desc>Slovakia | Trenciansky | 892m / 2927ft | 2 pts | 16 activations</desc>
<sym>Flag, Blue</sym>
</wpt>
<wpt lat="49.1259" lon="18.4958">
<ele>891.0</ele>
<name>OM/TN-018 Velký Manin</name>
<cmt>OM/TN-018</cmt>
<desc>Slovakia | Trenciansky | 891m / 2923ft | 2 pts | 16 activations</desc>
<sym>Flag, Blue</sym>
</wpt>
<wpt lat="49.0442" lon="18.5105">
<ele>837.0</ele>
<name>OM/TN-019 Stráne</name>
<cmt>OM/TN-019</cmt>
<desc>Slovakia | Trenciansky | 837m / 2746ft | 2 pts | 4 activations</desc>
<sym>Flag, Blue</sym>
</wpt>
<wpt lat="49.1417" lon="18.5503">
<ele>835.0</ele>
<name>OM/TN-020 Havrania skala</name>
<cmt>OM/TN-020</cmt>
<desc>Slovakia | Trenciansky | 835m / 2740ft | 2 pts | 10 activations</desc>
<sym>Flag, Blue</sym>
</wpt>
<wpt lat="49.1486" lon="18.5067">
<ele>813.0</ele>
<name>OM/TN-021 Malý Manín</name>
<cmt>OM/TN-021</cmt>
<desc>Slovakia | Trenciansky | 813m / 2667ft | 2 pts | 8 activations</desc>
<sym>Flag, Blue</sym>
</wpt>
<wpt lat="49.0225" lon="18.3317">
<ele>765.0</ele>
<name>OM/TN-022 Butko</name>
<cmt>OM/TN-022</cmt>
<desc>Slovakia | Trenciansky | 765m / 2510ft | 2 pts | 9 activations</desc>
<sym>Flag, Blue</sym>
</wpt>
<wpt lat="49.0249" lon="18.4495">
<ele>685.0</ele>
<name>OM/TN-023 Stráž</name>
<cmt>OM/TN-023</cmt>
<desc>Slovakia | Trenciansky | 685m / 2247ft | 1 pts | 2 activations</desc>
<sym>Flag, Blue</sym>
</wpt>
<wpt lat="49.162" lon="18.4247">
<ele>654.0</ele>
<name>OM/TN-024 Klapa</name>
<cmt>OM/TN-024</cmt>
<desc>Slovakia | Trenciansky | 654m / 2146ft | 1 pts | 9 activations</desc>
<sym>Flag, Blue</sym>
</wpt>
<wpt lat="48.8173" lon="17.4268">
<ele>621.0</ele>
<name>OM/TN-025 Žalostiná</name>
<cmt>OM/TN-025</cmt>
<desc>Slovakia | Trenciansky | 621m / 2037ft | 1 pts | 29 activations</desc>
<sym>Flag, Blue</sym>
</wpt>
<wpt lat="49.1411" lon="18.4025">
<ele>601.0</ele>
<name>OM/TN-026 Stavná</name>
<cmt>OM/TN-026</cmt>
<desc>Slovakia | Trenciansky | 601m / 1972ft | 1 pts | 8 activations</desc>
<sym>Flag, Blue</sym>
</wpt>
<wpt lat="48.7647" lon="17.7742">
<ele>588.0</ele>
<name>OM/TN-027 Salašky</name>
<cmt>OM/TN-027</cmt>
<desc>Slovakia | Trenciansky | 588m / 1929ft | 1 pts | 13 activations</desc>
<sym>Flag, Blue</sym>
</wpt>
<wpt lat="48.6385" lon="17.5915">
<ele>585.0</ele>
<name>OM/TN-028 Klenová</name>
<cmt>OM/TN-028</cmt>
<desc>Slovakia | Trenciansky | 585m / 1919ft | 1 pts | 17 activations</desc>
<sym>Flag, Blue</sym>
</wpt>
<wpt lat="48.5961" lon="18.3883">
<ele>551.0</ele>
<name>OM/TN-029 Osecný vrch</name>
<cmt>OM/TN-029</cmt>
<desc>Slovakia | Trenciansky | 551m / 1808ft | 1 pts | 15 activations</desc>
<sym>Flag, Blue</sym>
</wpt>
<wpt lat="49.2862" lon="18.3267">
<ele>1028.0</ele>
<name>OM/TN-030 Koniakova skala</name>
<cmt>OM/TN-030</cmt>
<desc>Slovakia | Trenciansky | 1028m / 3372ft | 4 pts | 14 activations</desc>
<sym>Flag, Blue</sym>
</wpt>
<wpt lat="48.9394" lon="18.3264">
<ele>956.0</ele>
<name>OM/TN-031 Vápec</name>
<cmt>OM/TN-031</cmt>
<desc>Slovakia | Trenciansky | 956m / 3136ft | 4 pts | 36 activations</desc>
<sym>Flag, Blue</sym>
</wpt>
<wpt lat="48.8801" lon="18.2579">
<ele>954.0</ele>
<name>OM/TN-032 Baske</name>
<cmt>OM/TN-032</cmt>
<desc>Slovakia | Trenciansky | 954m / 3129ft | 4 pts | 10 activations</desc>
<sym>Flag, Blue</sym>
</wpt>
<wpt lat="49.2311" lon="18.2759">
<ele>893.0</ele>
<name>OM/TN-033 Zigov</name>
<cmt>OM/TN-033</cmt>
<desc>Slovakia | Trenciansky | 893m / 2929ft | 2 pts | 6 activations</desc>
<sym>Flag, Blue</sym>
</wpt>
<wpt lat="49.2494" lon="18.2638">
<ele>891.0</ele>
<name>OM/TN-034 Dubová</name>
<cmt>OM/TN-034</cmt>
<desc>Slovakia | Trenciansky | 891m / 2923ft | 2 pts | 5 activations</desc>
<sym>Flag, Blue</sym>
</wpt>
<wpt lat="48.96" lon="18.3965">
<ele>865.0</ele>
<name>OM/TN-035 Cierny vrch</name>
<cmt>OM/TN-035</cmt>
<desc>Slovakia | Trenciansky | 865m / 2837ft | 2 pts | 5 activations</desc>
<sym>Flag, Blue</sym>
</wpt>
<wpt lat="48.8993" lon="17.8508">
<ele>807.0</ele>
<name>OM/TN-036 Dúžnik</name>
<cmt>OM/TN-036</cmt>
<desc>Slovakia | Trenciansky | 807m / 2647ft | 2 pts | 8 activations</desc>
<sym>Flag, Blue</sym>
</wpt>
<wpt lat="48.8479" lon="18.1251">
<ele>767.0</ele>
<name>OM/TN-037 Ostrý vrch</name>
<cmt>OM/TN-037</cmt>
<desc>Slovakia | Trenciansky | 767m / 2516ft | 2 pts | 19 activations</desc>
<sym>Flag, Blue</sym>
</wpt>
<wpt lat="48.9592" lon="18.335">
<ele>758.0</ele>
<name>OM/TN-038 Macicie</name>
<cmt>OM/TN-038</cmt>
<desc>Slovakia | Trenciansky | 758m / 2486ft | 2 pts | 5 activations</desc>
<sym>Flag, Blue</sym>
</wpt>
<wpt lat="48.9697" lon="17.9319">
<ele>751.0</ele>
<name>OM/TN-039 Chabová</name>
<cmt>OM/TN-039</cmt>
<desc>Slovakia | Trenciansky | 751m / 2463ft | 2 pts | 20 activations</desc>
<sym>Flag, Blue</sym>
</wpt>
<wpt lat="48.9919" lon="18.3159">
<ele>735.0</ele>
<name>OM/TN-040 Stráne</name>
<cmt>OM/TN-040</cmt>
<desc>Slovakia | Trenciansky | 735m / 2411ft | 2 pts | 5 activations</desc>
<sym>Flag, Blue</sym>
</wpt>
<wpt lat="49.0831" lon="18.5578">
<ele>732.0</ele>
<name>OM/TN-041 Tisová</name>
<cmt>OM/TN-041</cmt>
<desc>Slovakia | Trenciansky | 732m / 2401ft | 2 pts | 6 activations</desc>
<sym>Flag, Blue</sym>
</wpt>
<wpt lat="48.8668" lon="18.1418">
<ele>700.0</ele>
<name>OM/TN-042 Svitava</name>
<cmt>OM/TN-042</cmt>
<desc>Slovakia | Trenciansky | 700m / 2296ft | 2 pts | 16 activations</desc>
<sym>Flag, Blue</sym>
</wpt>
<wpt lat="48.9709" lon="18.293">
<ele>651.0</ele>
<name>OM/TN-043 Sokol</name>
<cmt>OM/TN-043</cmt>
<desc>Slovakia | Trenciansky | 651m / 2135ft | 1 pts | 6 activations</desc>
<sym>Flag, Blue</sym>
</wpt>
<wpt lat="48.6863" lon="18.4749">
<ele>615.0</ele>
<name>OM/TN-044 Drienový vrch</name>
<cmt>OM/TN-044</cmt>
<desc>Slovakia | Trenciansky | 615m / 2017ft | 1 pts | 12 activations</desc>
<sym>Flag, Blue</sym>
</wpt>
<wpt lat="48.6814" lon="17.5681">
<ele>543.0</ele>
<name>OM/TN-045 Bradlo</name>
<cmt>OM/TN-045</cmt>
<desc>Slovakia | Trenciansky | 543m / 1781ft | 1 pts | 35 activations</desc>
<sym>Flag, Blue</sym>
</wpt>
<wpt lat="48.7023" lon="17.7368">
<ele>483.0</ele>
<name>OM/TN-046 Velký Plešivec</name>
<cmt>OM/TN-046</cmt>
<desc>Slovakia | Trenciansky | 483m / 1584ft | 1 pts | 26 activations</desc>
<sym>Flag, Blue</sym>
</wpt>
<wpt lat="48.5238" lon="17.3925">
<ele>767.0</ele>
<name>OM/TT-001 Záruby</name>
<cmt>OM/TT-001</cmt>
<desc>Slovakia | Trnavský | 767m / 2516ft | 2 pts | 55 activations</desc>
<sym>Flag, Blue</sym>
</wpt>
<wpt lat="48.595" lon="17.9703">
<ele>748.0</ele>
<name>OM/TT-002 Marhát</name>
<cmt>OM/TT-002</cmt>
<desc>Slovakia | Trnavský | 748m / 2454ft | 2 pts | 59 activations</desc>
<sym>Flag, Blue</sym>
</wpt>
<wpt lat="48.554" lon="17.4132">
<ele>480.0</ele>
<name>OM/TT-003 Javorový vrch</name>
<cmt>OM/TT-003</cmt>
<desc>Slovakia | Trnavský | 480m / 1574ft | 1 pts | 18 activations</desc>
<sym>Flag, Blue</sym>
</wpt>
<wpt lat="49.1885" lon="19.8425">
<ele>2248.0</ele>
<name>OM/ZA-001 Bystrá</name>
<cmt>OM/ZA-001</cmt>
<desc>Slovakia | Žilinský | 2248m / 7375ft | 10 pts | 58 activations</desc>
<sym>Flag, Blue</sym>
</wpt>
<wpt lat="49.1931" lon="19.801">
<ele>2194.0</ele>
<name>OM/ZA-002 Jakubiná</name>
<cmt>OM/ZA-002</cmt>
<desc>Slovakia | Žilinský | 2194m / 7198ft | 10 pts | 37 activations</desc>
<sym>Flag, Blue</sym>
</wpt>
<wpt lat="49.1734" lon="19.741">
<ele>2184.0</ele>
<name>OM/ZA-003 Baranec</name>
<cmt>OM/ZA-003</cmt>
<desc>Slovakia | Žilinský | 2184m / 7165ft | 10 pts | 47 activations</desc>
<sym>Flag, Blue</sym>
</wpt>
<wpt lat="49.1981" lon="19.7098">
<ele>2178.0</ele>
<name>OM/ZA-004 Baníkov</name>
<cmt>OM/ZA-004</cmt>
<desc>Slovakia | Žilinský | 2178m / 7146ft | 10 pts | 34 activations</desc>
<sym>Flag, Blue</sym>
</wpt>
<wpt lat="49.1996" lon="19.82">
<ele>2173.0</ele>
<name>OM/ZA-005 Klin</name>
<cmt>OM/ZA-005</cmt>
<desc>Slovakia | Žilinský | 2173m / 7129ft | 10 pts | 50 activations</desc>
<sym>Flag, Blue</sym>
</wpt>
<wpt lat="48.943" lon="19.593">
<ele>2024.0</ele>
<name>OM/ZA-006 Chopok</name>
<cmt>OM/ZA-006</cmt>
<desc>Slovakia | Žilinský | 2024m / 6640ft | 10 pts | 107 activations</desc>
<sym>Flag, Blue</sym>
</wpt>
<wpt lat="49.2112" lon="19.6423">
<ele>1805.0</ele>
<name>OM/ZA-007 Sivý vrch</name>
<cmt>OM/ZA-007</cmt>
<desc>Slovakia | Žilinský | 1805m / 5922ft | 10 pts | 45 activations</desc>
<sym>Flag, Blue</sym>
</wpt>
<wpt lat="48.8937" lon="19.331">
<ele>1753.0</ele>
<name>OM/ZA-008 Veľká Chochuľa</name>
<cmt>OM/ZA-008</cmt>
<desc>Slovakia | Žilinský | 1753m / 5751ft | 8 pts | 23 activations</desc>
<sym>Flag, Blue</sym>
</wpt>
<wpt lat="48.9849" lon="19.633">
<ele>1752.0</ele>
<name>OM/ZA-009 Krakova hoľa</name>
<cmt>OM/ZA-009</cmt>
<desc>Slovakia | Žilinský | 1752m / 5748ft | 8 pts | 15 activations</desc>
<sym>Flag, Blue</sym>
</wpt>
<wpt lat="48.9434" lon="19.8778">
<ele>1727.0</ele>
<name>OM/ZA-010 Veľký Bok</name>
<cmt>OM/ZA-010</cmt>
<desc>Slovakia | Žilinský | 1727m / 5666ft | 8 pts | 8 activations</desc>
<sym>Flag, Blue</sym>
</wpt>
<wpt lat="49.573" lon="19.5293">
<ele>1723.0</ele>
<name>OM/ZA-011 Babia hora</name>
<cmt>OM/ZA-011</cmt>
<desc>Slovakia | Žilinský | 1723m / 5653ft | 8 pts | 60 activations</desc>
<sym>Flag, Blue</sym>
</wpt>
<wpt lat="48.9403" lon="19.7137">
<ele>1723.0</ele>
<name>OM/ZA-012 Rovná hoľa</name>
<cmt>OM/ZA-012</cmt>
<desc>Slovakia | Žilinský | 1723m / 5653ft | 8 pts | 17 activations</desc>
<sym>Flag, Blue</sym>
</wpt>
<wpt lat="49.1876" lon="19.0307">
<ele>1709.0</ele>
<name>OM/ZA-013 Veľký Kriváň</name>
<cmt>OM/ZA-013</cmt>
<desc>Slovakia | Žilinský | 1709m / 5607ft | 8 pts | 139 activations</desc>
<sym>Flag, Blue</sym>
</wpt>
<wpt lat="49.2613" lon="19.7215">
<ele>1687.0</ele>
<name>OM/ZA-014 Osobitá</name>
<cmt>OM/ZA-014</cmt>
<desc>Slovakia | Žilinský | 1687m / 5535ft | 8 pts | 15 activations</desc>
<sym>Flag, Blue</sym>
</wpt>
<wpt lat="49.1814" lon="18.9932">
<ele>1671.0</ele>
<name>OM/ZA-015 Malý Kriváň</name>
<cmt>OM/ZA-015</cmt>
<desc>Slovakia | Žilinský | 1671m / 5482ft | 8 pts | 98 activations</desc>
<sym>Flag, Blue</sym>
</wpt>
<wpt lat="48.9802" lon="19.3625">
<ele>1630.0</ele>
<name>OM/ZA-016 Salatin</name>
<cmt>OM/ZA-016</cmt>
<desc>Slovakia | Žilinský | 1630m / 5348ft | 8 pts | 38 activations</desc>
<sym>Flag, Blue</sym>
</wpt>
<wpt lat="49.2317" lon="19.0987">
<ele>1609.0</ele>
<name>OM/ZA-017 Veľký Rozsutec</name>
<cmt>OM/ZA-017</cmt>
<desc>Slovakia | Žilinský | 1609m / 5279ft | 8 pts | 90 activations</desc>
<sym>Flag, Blue</sym>
</wpt>
<wpt lat="49.1515" lon="19.3427">
<ele>1608.0</ele>
<name>OM/ZA-018 Veľký Choč</name>
<cmt>OM/ZA-018</cmt>
<desc>Slovakia | Žilinský | 1608m / 5276ft | 8 pts | 79 activations</desc>
<sym>Flag, Blue</sym>
</wpt>
<wpt lat="49.212" lon="19.094">
<ele>1608.0</ele>
<name>OM/ZA-019 Stoh</name>
<cmt>OM/ZA-019</cmt>
<desc>Slovakia | Žilinský | 1608m / 5276ft | 8 pts | 74 activations</desc>
<sym>Flag, Blue</sym>
</wpt>
<wpt lat="48.9021" lon="19.0792">
<ele>1592.0</ele>
<name>OM/ZA-020 Ostredok</name>
<cmt>OM/ZA-020</cmt>
<desc>Slovakia | Žilinský | 1592m / 5223ft | 6 pts | 44 activations</desc>
<sym>Flag, Blue</sym>
</wpt>
<wpt lat="48.9607" lon="19.1792">
<ele>1567.0</ele>
<name>OM/ZA-021 Rakytov</name>
<cmt>OM/ZA-021</cmt>
<desc>Slovakia | Žilinský | 1567m / 5141ft | 6 pts | 44 activations</desc>
<sym>Flag, Blue</sym>
</wpt>
<wpt lat="49.0004" lon="19.5552">
<ele>1560.0</ele>
<name>OM/ZA-022 Siná</name>
<cmt>OM/ZA-022</cmt>
<desc>Slovakia | Žilinský | 1560m / 5118ft | 6 pts | 11 activations</desc>
<sym>Flag, Blue</sym>
</wpt>
<wpt lat="49.5279" lon="19.3167">
<ele>1557.0</ele>
<name>OM/ZA-023 Pilsko</name>
<cmt>OM/ZA-023</cmt>
<desc>Slovakia | Žilinský | 1557m / 5108ft | 6 pts | 122 activations</desc>
<sym>Flag, Blue</sym>
</wpt>
<wpt lat="49.0213" lon="19.6318">
<ele>1549.0</ele>
<name>OM/ZA-024 Poludnica</name>
<cmt>OM/ZA-024</cmt>
<desc>Slovakia | Žilinský | 1549m / 5082ft | 6 pts | 23 activations</desc>
<sym>Flag, Blue</sym>
</wpt>
<wpt lat="48.9756" lon="19.7058">
<ele>1538.0</ele>
<name>OM/ZA-025 Ohnište</name>
<cmt>OM/ZA-025</cmt>
<desc>Slovakia | Žilinský | 1538m / 5046ft | 6 pts | 7 activations</desc>
<sym>Flag, Blue</sym>
</wpt>
<wpt lat="48.934" lon="19.117">
<ele>1532.0</ele>
<name>OM/ZA-026 Ploská</name>
<cmt>OM/ZA-026</cmt>
<desc>Slovakia | Žilinský | 1532m / 5026ft | 6 pts | 46 activations</desc>
<sym>Flag, Blue</sym>
</wpt>
<wpt lat="48.9826" lon="19.2308">
<ele>1530.0</ele>
<name>OM/ZA-027 Smrekovica</name>
<cmt>OM/ZA-027</cmt>
<desc>Slovakia | Žilinský | 1530m / 5020ft | 6 pts | 18 activations</desc>
<sym>Flag, Blue</sym>
</wpt>
<wpt lat="48.9413" lon="19.0892">
<ele>1510.0</ele>
<name>OM/ZA-028 Borišov</name>
<cmt>OM/ZA-028</cmt>
<desc>Slovakia | Žilinský | 1510m / 4954ft | 6 pts | 38 activations</desc>
<sym>Flag, Blue</sym>
</wpt>
<wpt lat="49.091" lon="18.8137">
<ele>1476.0</ele>
<name>OM/ZA-029 Veľká lúka</name>
<cmt>OM/ZA-029</cmt>
<desc>Slovakia | Žilinský | 1476m / 4843ft | 6 pts | 123 activations</desc>
<sym>Flag, Blue</sym>
</wpt>
<wpt lat="48.9323" lon="18.9808">
<ele>1414.0</ele>
<name>OM/ZA-030 Ľubená</name>
<cmt>OM/ZA-030</cmt>
<desc>Slovakia | Žilinský | 1414m / 4639ft | 6 pts | 28 activations</desc>
<sym>Flag, Blue</sym>
</wpt>
<wpt lat="48.8906" lon="19.2232">
<ele>1403.0</ele>
<name>OM/ZA-031 Zvolen</name>
<cmt>OM/ZA-031</cmt>
<desc>Slovakia | Žilinský | 1403m / 4603ft | 6 pts | 77 activations</desc>
<sym>Flag, Blue</sym>
</wpt>
<wpt lat="49.2719" lon="19.2467">
<ele>1394.0</ele>
<name>OM/ZA-032 Minčol</name>
<cmt>OM/ZA-032</cmt>
<desc>Slovakia | Žilinský | 1394m / 4573ft | 6 pts | 38 activations</desc>
<sym>Flag, Blue</sym>
</wpt>
<wpt lat="49.0466" lon="19.1122">
<ele>1394.0</ele>
<name>OM/ZA-033 Kľak</name>
<cmt>OM/ZA-033</cmt>
<desc>Slovakia | Žilinský | 1394m / 4573ft | 6 pts | 17 activations</desc>
<sym>Flag, Blue</sym>
</wpt>
<wpt lat="48.9965" lon="19.069">
<ele>1381.0</ele>
<name>OM/ZA-034 Lysec</name>
<cmt>OM/ZA-034</cmt>
<desc>Slovakia | Žilinský | 1381m / 4531ft | 6 pts | 28 activations</desc>
<sym>Flag, Blue</sym>
</wpt>
<wpt lat="49.175" lon="19.5132">
<ele>1372.0</ele>
<name>OM/ZA-035 Prosečné</name>
<cmt>OM/ZA-035</cmt>
<desc>Slovakia | Žilinský | 1372m / 4501ft | 6 pts | 15 activations</desc>
<sym>Flag, Blue</sym>
</wpt>
<wpt lat="48.9817" lon="18.6408">
<ele>1352.0</ele>
<name>OM/ZA-036 Kľak</name>
<cmt>OM/ZA-036</cmt>
<desc>Slovakia | Žilinský | 1352m / 4436ft | 6 pts | 93 activations</desc>
<sym>Flag, Blue</sym>
</wpt>
<wpt lat="49.3243" lon="19.2158">
<ele>1325.0</ele>
<name>OM/ZA-037 Parač</name>
<cmt>OM/ZA-037</cmt>
<desc>Slovakia | Žilinský | 1325m / 4347ft | 6 pts | 19 activations</desc>
<sym>Flag, Blue</sym>
</wpt>
<wpt lat="48.8088" lon="18.9719">
<ele>1317.0</ele>
<name>OM/ZA-038 Flochová</name>
<cmt>OM/ZA-038</cmt>
<desc>Slovakia | Žilinský | 1317m / 4321ft | 6 pts | 26 activations</desc>
<sym>Flag, Blue</sym>
</wpt>
<wpt lat="49.009" lon="19.4373">
<ele>1315.0</ele>
<name>OM/ZA-039 Ľupčianska Magura</name>
<cmt>OM/ZA-039</cmt>
<desc>Slovakia | Žilinský | 1315m / 4314ft | 6 pts | 9 activations</desc>
<sym>Flag, Blue</sym>
</wpt>
<wpt lat="49.298" lon="19.6922">
<ele>1314.0</ele>
<name>OM/ZA-040 Skorušina</name>
<cmt>OM/ZA-040</cmt>
<desc>Slovakia | Žilinský | 1314m / 4311ft | 6 pts | 28 activations</desc>
<sym>Flag, Blue</sym>
</wpt>
<wpt lat="49.1713" lon="19.4718">
<ele>1278.0</ele>
<name>OM/ZA-041 Lomné</name>
<cmt>OM/ZA-041</cmt>
<desc>Slovakia | Žilinský | 1278m / 4193ft | 4 pts | 8 activations</desc>
<sym>Flag, Blue</sym>
</wpt>
<wpt lat="48.8904" lon="18.9617">
<ele>1268.0</ele>
<name>OM/ZA-042 Drieňok</name>
<cmt>OM/ZA-042</cmt>
<desc>Slovakia | Žilinský | 1268m / 4160ft | 4 pts | 20 activations</desc>
<sym>Flag, Blue</sym>
</wpt>
<wpt lat="49.2435" lon="19.5478">
<ele>1251.0</ele>
<name>OM/ZA-043 Kopec</name>
<cmt>OM/ZA-043</cmt>
<desc>Slovakia | Žilinský | 1251m / 4104ft | 4 pts | 11 activations</desc>
<sym>Flag, Blue</sym>
</wpt>
<wpt lat="49.0131" lon="19.7468">
<ele>1244.0</ele>
<name>OM/ZA-044 Capkovo</name>
<cmt>OM/ZA-044</cmt>
<desc>Slovakia | Žilinský | 1244m / 4081ft | 4 pts | 3 activations</desc>
<sym>Flag, Blue</sym>
</wpt>
<wpt lat="49.4135" lon="18.9687">
<ele>1236.0</ele>
<name>OM/ZA-045 Veľká Rača</name>
<cmt>OM/ZA-045</cmt>
<desc>Slovakia | Žilinský | 1236m / 4055ft | 4 pts | 192 activations</desc>
<sym>Flag, Blue</sym>
</wpt>
<wpt lat="49.2963" lon="19.7942">
<ele>1232.0</ele>
<name>OM/ZA-046 Magura</name>
<cmt>OM/ZA-046</cmt>
<desc>Slovakia | Žilinský | 1232m / 4042ft | 4 pts | 38 activations</desc>
<sym>Flag, Blue</sym>
</wpt>
<wpt lat="49.2449" lon="19.1872">
<ele>1226.0</ele>
<name>OM/ZA-047 Hrčova kečka</name>
<cmt>OM/ZA-047</cmt>
<desc>Slovakia | Žilinský | 1226m / 4022ft | 4 pts | 3 activations</desc>
<sym>Flag, Blue</sym>
</wpt>
<wpt lat="49.3441" lon="19.4522">
<ele>1221.0</ele>
<name>OM/ZA-048 Budín</name>
<cmt>OM/ZA-048</cmt>
<desc>Slovakia | Žilinský | 1221m / 4006ft | 4 pts | 8 activations</desc>
<sym>Flag, Blue</sym>
</wpt>
<wpt lat="49.0266" lon="18.7402">
<ele>1218.0</ele>
<name>OM/ZA-049 Hnilická Kýčera</name>
<cmt>OM/ZA-049</cmt>
<desc>Slovakia | Žilinský | 1218m / 3996ft | 4 pts | 36 activations</desc>
<sym>Flag, Blue</sym>
</wpt>
<wpt lat="49.2275" lon="19.1837">
<ele>1214.0</ele>
<name>OM/ZA-050 Lysica</name>
<cmt>OM/ZA-050</cmt>
<desc>Slovakia | Žilinský | 1214m / 3983ft | 4 pts | 5 activations</desc>
<sym>Flag, Blue</sym>
</wpt>
<wpt lat="48.955" lon="18.4632">
<ele>1213.0</ele>
<name>OM/ZA-051 Stražov</name>
<cmt>OM/ZA-051</cmt>
<desc>Slovakia | Žilinský | 1213m / 3980ft | 4 pts | 39 activations</desc>
<sym>Flag, Blue</sym>
</wpt>
<wpt lat="48.9615" lon="18.9948">
<ele>1202.0</ele>
<name>OM/ZA-052 Kozia skala</name>
<cmt>OM/ZA-052</cmt>
<desc>Slovakia | Žilinský | 1202m / 3944ft | 4 pts | 4 activations</desc>
<sym>Flag, Blue</sym>
</wpt>
<wpt lat="48.9922" lon="18.7042">
<ele>1190.0</ele>
<name>OM/ZA-053 Skalky</name>
<cmt>OM/ZA-053</cmt>
<desc>Slovakia | Žilinský | 1190m / 3904ft | 4 pts | 36 activations</desc>
<sym>Flag, Blue</sym>
</wpt>
<wpt lat="49.1371" lon="19.1378">
<ele>1187.0</ele>
<name>OM/ZA-054 Kopa</name>
<cmt>OM/ZA-054</cmt>
<desc>Slovakia | Žilinský | 1187m / 3894ft | 4 pts | 13 activations</desc>
<sym>Flag, Blue</sym>
</wpt>
<wpt lat="49.236" lon="19.0148">
<ele>1172.0</ele>
<name>OM/ZA-055 Sokolie</name>
<cmt>OM/ZA-055</cmt>
<desc>Slovakia | Žilinský | 1172m / 3845ft | 4 pts | 26 activations</desc>
<sym>Flag, Blue</sym>
</wpt>
<wpt lat="49.1581" lon="19.3872">
<ele>1171.0</ele>
<name>OM/ZA-056 Magura</name>
<cmt>OM/ZA-056</cmt>
<desc>Slovakia | Žilinský | 1171m / 3842ft | 4 pts | 9 activations</desc>
<sym>Flag, Blue</sym>
</wpt>
<wpt lat="49.1655" lon="19.1788">
<ele>1170.0</ele>
<name>OM/ZA-057 Šip</name>
<cmt>OM/ZA-057</cmt>
<desc>Slovakia | Žilinský | 1170m / 3839ft | 4 pts | 23 activations</desc>
<sym>Flag, Blue</sym>
</wpt>
<wpt lat="49.0813" lon="19.1227">
<ele>1162.0</ele>
<name>OM/ZA-058 Nižná Lipová</name>
<cmt>OM/ZA-058</cmt>
<desc>Slovakia | Žilinský | 1162m / 3812ft | 4 pts | 12 activations</desc>
<sym>Flag, Blue</sym>
</wpt>
<wpt lat="49.4091" lon="19.1868">
<ele>1155.0</ele>
<name>OM/ZA-059 Úšust</name>
<cmt>OM/ZA-059</cmt>
<desc>Slovakia | Žilinský | 1155m / 3789ft | 4 pts | 25 activations</desc>
<sym>Flag, Blue</sym>
</wpt>
<wpt lat="49.1258" lon="19.2427">
<ele>1139.0</ele>
<name>OM/ZA-060 Kečky</name>
<cmt>OM/ZA-060</cmt>
<desc>Slovakia | Žilinský | 1139m / 3737ft | 4 pts | 11 activations</desc>
<sym>Flag, Blue</sym>
</wpt>
<wpt lat="49.4874" lon="19.2315">
<ele>1131.0</ele>
<name>OM/ZA-061 Hruba Bučina</name>
<cmt>OM/ZA-061</cmt>
<desc>Slovakia | Žilinský | 1131m / 3711ft | 4 pts | 54 activations</desc>
<sym>Flag, Blue</sym>
</wpt>
<wpt lat="49.0473" lon="19.2793">
<ele>1099.0</ele>
<name>OM/ZA-062 Hýrová</name>
<cmt>OM/ZA-062</cmt>
<desc>Slovakia | Žilinský | 1099m / 3606ft | 4 pts | 29 activations</desc>
<sym>Flag, Blue</sym>
</wpt>
<wpt lat="49.2761" lon="19.1003">
<ele>1096.0</ele>
<name>OM/ZA-063 Pupov</name>
<cmt>OM/ZA-063</cmt>
<desc>Slovakia | Žilinský | 1096m / 3596ft | 4 pts | 12 activations</desc>
<sym>Flag, Blue</sym>
</wpt>
<wpt lat="49.244" lon="19.0602">
<ele>1086.0</ele>
<name>OM/ZA-064 Boboty</name>
<cmt>OM/ZA-064</cmt>
<desc>Slovakia | Žilinský | 1086m / 3563ft | 4 pts | 25 activations</desc>
<sym>Flag, Blue</sym>
</wpt>
<wpt lat="49.171" lon="19.359">
<ele>1086.0</ele>
<name>OM/ZA-065 Holica</name>
<cmt>OM/ZA-065</cmt>
<desc>Slovakia | Žilinský | 1086m / 3563ft | 4 pts | 13 activations</desc>
<sym>Flag, Blue</sym>
</wpt>
<wpt lat="49.3189" lon="18.3674">
<ele>1071.0</ele>
<name>OM/ZA-066 Veľký Javornik</name>
<cmt>OM/ZA-066</cmt>
<desc>Slovakia | Žilinský | 1071m / 3514ft | 4 pts | 93 activations</desc>
<sym>Flag, Blue</sym>
</wpt>
<wpt lat="49.5063" lon="18.6712">
<ele>1067.0</ele>
<name>OM/ZA-067 Veľký Polom</name>
<cmt>OM/ZA-067</cmt>
<desc>Slovakia | Žilinský | 1067m / 3501ft | 4 pts | 85 activations</desc>
<sym>Flag, Blue</sym>
</wpt>
<wpt lat="49.1366" lon="19.2103">
<ele>1067.0</ele>
<name>OM/ZA-068 Ostré</name>
<cmt>OM/ZA-068</cmt>
<desc>Slovakia | Žilinský | 1067m / 3501ft | 4 pts | 16 activations</desc>
<sym>Flag, Blue</sym>
</wpt>
<wpt lat="49.102" lon="19.2792">
<ele>1054.0</ele>
<name>OM/ZA-069 Čebrať</name>
<cmt>OM/ZA-069</cmt>
<desc>Slovakia | Žilinský | 1054m / 3458ft | 4 pts | 20 activations</desc>
<sym>Flag, Blue</sym>
</wpt>
<wpt lat="48.9839" lon="18.5132">
<ele>1037.0</ele>
<name>OM/ZA-070 Hrubá Kečka</name>
<cmt>OM/ZA-070</cmt>
<desc>Slovakia | Žilinský | 1037m / 3402ft | 4 pts | 18 activations</desc>
<sym>Flag, Blue</sym>
</wpt>
<wpt lat="48.9579" lon="18.7608">
<ele>1024.0</ele>
<name>OM/ZA-071 Chlieviská</name>
<cmt>OM/ZA-071</cmt>
<desc>Slovakia | Žilinský | 1024m / 3360ft | 4 pts | 22 activations</desc>
<sym>Flag, Blue</sym>
</wpt>
<wpt lat="49.2816" lon="18.8787">
<ele>999.0</ele>
<name>OM/ZA-072 Ľadonhora</name>
<cmt>OM/ZA-072</cmt>
<desc>Slovakia | Žilinský | 999m / 3278ft | 4 pts | 30 activations</desc>
<sym>Flag, Blue</sym>
</wpt>
<wpt lat="49.2713" lon="19.0122">
<ele>993.0</ele>
<name>OM/ZA-073 Mravečnik</name>
<cmt>OM/ZA-073</cmt>
<desc>Slovakia | Žilinský | 993m / 3258ft | 4 pts | 51 activations</desc>
<sym>Flag, Blue</sym>
</wpt>
<wpt lat="49.3176" lon="18.9107">
<ele>922.0</ele>
<name>OM/ZA-074 Černatín</name>
<cmt>OM/ZA-074</cmt>
<desc>Slovakia | Žilinský | 922m / 3025ft | 4 pts | 31 activations</desc>
<sym>Flag, Blue</sym>
</wpt>
<wpt lat="48.7866" lon="18.7848">
<ele>892.0</ele>
<name>OM/ZA-075 Horeňovo</name>
<cmt>OM/ZA-075</cmt>
<desc>Slovakia | Žilinský | 892m / 2927ft | 2 pts | 33 activations</desc>
<sym>Flag, Blue</sym>
</wpt>
<wpt lat="49.1278" lon="18.6093">
<ele>867.0</ele>
<name>OM/ZA-076 Žibrid</name>
<cmt>OM/ZA-076</cmt>
<desc>Slovakia | Žilinský | 867m / 2844ft | 2 pts | 20 activations</desc>
<sym>Flag, Blue</sym>
</wpt>
<wpt lat="49.1628" lon="18.6125">
<ele>822.0</ele>
<name>OM/ZA-077 Kečka</name>
<cmt>OM/ZA-077</cmt>
<desc>Slovakia | Žilinský | 822m / 2697ft | 2 pts | 11 activations</desc>
<sym>Flag, Blue</sym>
</wpt>
<wpt lat="49.1425" lon="18.6845">
<ele>778.0</ele>
<name>OM/ZA-078 Skalky</name>
<cmt>OM/ZA-078</cmt>
<desc>Slovakia | Žilinský | 778m / 2552ft | 2 pts | 23 activations</desc>
<sym>Flag, Blue</sym>
</wpt>
<wpt lat="49.1554" lon="18.6558">
<ele>686.0</ele>
<name>OM/ZA-079 Strážna</name>
<cmt>OM/ZA-079</cmt>
<desc>Slovakia | Žilinský | 686m / 2251ft | 1 pts | 14 activations</desc>
<sym>Flag, Blue</sym>
</wpt>
<wpt lat="49.1972" lon="19.7484">
<ele>2125.0</ele>
<name>OM/ZA-080 Plačlivé</name>
<cmt>OM/ZA-080</cmt>
<desc>Slovakia | Žilinský | 2125m / 6971ft | 10 pts | 48 activations</desc>
<sym>Flag, Blue</sym>
</wpt>
<wpt lat="49.2076" lon="19.7632">
<ele>2063.0</ele>
<name>OM/ZA-081 Volovec</name>
<cmt>OM/ZA-081</cmt>
<desc>Slovakia | Žilinský | 2063m / 6768ft | 10 pts | 56 activations</desc>
<sym>Flag, Blue</sym>
</wpt>
<wpt lat="48.9094" lon="19.8627">
<ele>1659.0</ele>
<name>OM/ZA-082 Homôľka</name>
<cmt>OM/ZA-082</cmt>
<desc>Slovakia | Žilinský | 1659m / 5442ft | 8 pts | 8 activations</desc>
<sym>Flag, Blue</sym>
</wpt>
<wpt lat="48.9575" lon="19.3559">
<ele>1554.0</ele>
<name>OM/ZA-083 Tlstá</name>
<cmt>OM/ZA-083</cmt>
<desc>Slovakia | Žilinský | 1554m / 5098ft | 6 pts | 2 activations</desc>
<sym>Flag, Blue</sym>
</wpt>
<wpt lat="49.0062" lon="19.2062">
<ele>1485.0</ele>
<name>OM/ZA-084 Malá Smrekovica</name>
<cmt>OM/ZA-084</cmt>
<desc>Slovakia | Žilinský | 1485m / 4872ft | 6 pts | 40 activations</desc>
<sym>Flag, Blue</sym>
</wpt>
<wpt lat="48.9246" lon="19.7814">
<ele>1478.0</ele>
<name>OM/ZA-085 Fišiarka</name>
<cmt>OM/ZA-085</cmt>
<desc>Slovakia | Žilinský | 1478m / 4849ft | 6 pts | 1 activations</desc>
<sym>Flag, Blue</sym>
</wpt>
<wpt lat="49.2199" lon="19.1243">
<ele>1362.0</ele>
<name>OM/ZA-086 Osnica</name>
<cmt>OM/ZA-086</cmt>
<desc>Slovakia | Žilinský | 1362m / 4468ft | 6 pts | 47 activations</desc>
<sym>Flag, Blue</sym>
</wpt>
<wpt lat="48.9999" lon="19.4909">
<ele>1310.0</ele>
<name>OM/ZA-087 Hláčovo</name>
<cmt>OM/ZA-087</cmt>
<desc>Slovakia | Žilinský | 1310m / 4297ft | 6 pts | 2 activations</desc>
<sym>Flag, Blue</sym>
</wpt>
<wpt lat="49.0159" lon="19.6912">
<ele>1285.0</ele>
<name>OM/ZA-088 Smrekovica</name>
<cmt>OM/ZA-088</cmt>
<desc>Slovakia | Žilinský | 1285m / 4215ft | 4 pts | 6 activations</desc>
<sym>Flag, Blue</sym>
</wpt>
<wpt lat="49.0144" lon="19.1616">
<ele>1281.0</ele>
<name>OM/ZA-089 Perušín</name>
<cmt>OM/ZA-089</cmt>
<desc>Slovakia | Žilinský | 1281m / 4202ft | 4 pts | 1 activations</desc>
<sym>Flag, Blue</sym>
</wpt>
<wpt lat="49.0017" lon="19.8697">
<ele>1200.0</ele>
<name>OM/ZA-090 Vysoké</name>
<cmt>OM/ZA-090</cmt>
<desc>Slovakia | Žilinský | 1200m / 3937ft | 4 pts | 1 activations</desc>
<sym>Flag, Blue</sym>
</wpt>
<wpt lat="48.9858" lon="19.4145">
<ele>1180.0</ele>
<name>OM/ZA-091 Červený grúň</name>
<cmt>OM/ZA-091</cmt>
<desc>Slovakia | Žilinský | 1180m / 3871ft | 4 pts | 1 activations</desc>
<sym>Flag, Blue</sym>
</wpt>
<wpt lat="49.019" lon="19.9056">
<ele>1178.0</ele>
<name>OM/ZA-092 Turková</name>
<cmt>OM/ZA-092</cmt>
<desc>Slovakia | Žilinský | 1178m / 3864ft | 4 pts | 11 activations</desc>
<sym>Flag, Blue</sym>
</wpt>
<wpt lat="49.0051" lon="19.3094">
<ele>1176.0</ele>
<name>OM/ZA-093 Brankov</name>
<cmt>OM/ZA-093</cmt>
<desc>Slovakia | Žilinský | 1176m / 3858ft | 4 pts | 6 activations</desc>
<sym>Flag, Blue</sym>
</wpt>
<wpt lat="49.3463" lon="19.2512">
<ele>1166.0</ele>
<name>OM/ZA-094 Štibel</name>
<cmt>OM/ZA-094</cmt>
<desc>Slovakia | Žilinský | 1166m / 3825ft | 4 pts | 12 activations</desc>
<sym>Flag, Blue</sym>
</wpt>
<wpt lat="49.0015" lon="19.7874">
<ele>1150.0</ele>
<name>OM/ZA-095 Mních</name>
<cmt>OM/ZA-095</cmt>
<desc>Slovakia | Žilinský | 1150m / 3772ft | 4 pts | 2 activations</desc>
<sym>Flag, Blue</sym>
</wpt>
<wpt lat="49.0334" lon="19.9802">
<ele>1106.0</ele>
<name>OM/ZA-096 Slamená</name>
<cmt>OM/ZA-096</cmt>
<desc>Slovakia | Žilinský | 1106m / 3628ft | 4 pts | 10 activations</desc>
<sym>Flag, Blue</sym>
</wpt>
<wpt lat="49.4118" lon="19.3904">
<ele>1051.0</ele>
<name>OM/ZA-097 Vráta</name>
<cmt>OM/ZA-097</cmt>
<desc>Slovakia | Žilinský | 1051m / 3448ft | 4 pts | 10 activations</desc>
<sym>Flag, Blue</sym>
</wpt>
<wpt lat="49.1476" lon="19.4304">
<ele>993.0</ele>
<name>OM/ZA-098 Liptovský hrad</name>
<cmt>OM/ZA-098</cmt>
<desc>Slovakia | Žilinský | 993m / 3257ft | 4 pts | 27 activations</desc>
<sym>Flag, Blue</sym>
</wpt>
<wpt lat="49.1394" lon="19.4061">
<ele>977.0</ele>
<name>OM/ZA-099 Plieška</name>
<cmt>OM/ZA-099</cmt>
<desc>Slovakia | Žilinský | 977m / 3205ft | 4 pts | 11 activations</desc>
<sym>Flag, Blue</sym>
</wpt>
<wpt lat="49.3145" lon="18.9865">
<ele>951.0</ele>
<name>OM/ZA-100 Čierna Lutiša</name>
<cmt>OM/ZA-100</cmt>
<desc>Slovakia | Žilinský | 951m / 3120ft | 4 pts | 11 activations</desc>
<sym>Flag, Blue</sym>
</wpt>
<wpt lat="49.3734" lon="19.3025">
<ele>938.0</ele>
<name>OM/ZA-101 Kamenný vrch</name>
<cmt>OM/ZA-101</cmt>
<desc>Slovakia | Žilinský | 938m / 3077ft | 4 pts | 21 activations</desc>
<sym>Flag, Blue</sym>
</wpt>
<wpt lat="49.1509" lon="18.8131">
<ele>933.0</ele>
<name>OM/ZA-102 Hoblík</name>
<cmt>OM/ZA-102</cmt>
<desc>Slovakia | Žilinský | 933m / 3061ft | 4 pts | 30 activations</desc>
<sym>Flag, Blue</sym>
</wpt>
<wpt lat="49.2406" lon="19.1466">
<ele>930.0</ele>
<name>OM/ZA-103 Ostré</name>
<cmt>OM/ZA-103</cmt>
<desc>Slovakia | Žilinský | 930m / 3051ft | 4 pts | 10 activations</desc>
<sym>Flag, Blue</sym>
</wpt>
<wpt lat="49.2623" lon="18.9322">
<ele>920.0</ele>
<name>OM/ZA-104 Magura</name>
<cmt>OM/ZA-104</cmt>
<desc>Slovakia | Žilinský | 920m / 3018ft | 4 pts | 20 activations</desc>
<sym>Flag, Blue</sym>
</wpt>
<wpt lat="49.1339" lon="18.7664">
<ele>919.0</ele>
<name>OM/ZA-105 Čipčie</name>
<cmt>OM/ZA-105</cmt>
<desc>Slovakia | Žilinský | 919m / 3015ft | 4 pts | 33 activations</desc>
<sym>Flag, Blue</sym>
</wpt>
<wpt lat="49.3372" lon="18.6756">
<ele>910.0</ele>
<name>OM/ZA-106 Kazícka Kýčera</name>
<cmt>OM/ZA-106</cmt>
<desc>Slovakia | Žilinský | 910m / 2985ft | 4 pts | 18 activations</desc>
<sym>Flag, Blue</sym>
</wpt>
<wpt lat="49.4524" lon="18.8634">
<ele>860.0</ele>
<name>OM/ZA-107 Javorské</name>
<cmt>OM/ZA-107</cmt>
<desc>Slovakia | Žilinský | 860m / 2821ft | 2 pts | 25 activations</desc>
<sym>Flag, Blue</sym>
</wpt>
<wpt lat="48.8762" lon="18.6997">
<ele>829.0</ele>
<name>OM/ZA-108 Vyšehrad</name>
<cmt>OM/ZA-108</cmt>
<desc>Slovakia | Žilinský | 829m / 2719ft | 2 pts | 47 activations</desc>
<sym>Flag, Blue</sym>
</wpt>
<wpt lat="49.274" lon="18.7939">
<ele>819.0</ele>
<name>OM/ZA-109 Veľké Vreteno</name>
<cmt>OM/ZA-109</cmt>
<desc>Slovakia | Žilinský | 819m / 2687ft | 2 pts | 19 activations</desc>
<sym>Flag, Blue</sym>
</wpt>
<wpt lat="49.4021" lon="18.689">
<ele>797.0</ele>
<name>OM/ZA-110 Vysoká</name>
<cmt>OM/ZA-110</cmt>
<desc>Slovakia | Žilinský | 797m / 2614ft | 2 pts | 16 activations</desc>
<sym>Flag, Blue</sym>
</wpt>
<wpt lat="49.2376" lon="18.8278">
<ele>768.0</ele>
<name>OM/ZA-111 Straník</name>
<cmt>OM/ZA-111</cmt>
<desc>Slovakia | Žilinský | 768m / 2519ft | 2 pts | 69 activations</desc>
<sym>Flag, Blue</sym>
</wpt>
<wpt lat="49.2591" lon="18.8291">
<ele>744.0</ele>
<name>OM/ZA-112 Kučerovka</name>
<cmt>OM/ZA-112</cmt>
<desc>Slovakia | Žilinský | 744m / 2440ft | 2 pts | 48 activations</desc>
<sym>Flag, Blue</sym>
</wpt>
<wpt lat="49.2308" lon="18.8988">
<ele>736.0</ele>
<name>OM/ZA-113 Želehosť</name>
<cmt>OM/ZA-113</cmt>
<desc>Slovakia | Žilinský | 736m / 2414ft | 2 pts | 11 activations</desc>
<sym>Flag, Blue</sym>
</wpt>
<wpt lat="49.1029" lon="18.6152">
<ele>727.0</ele>
<name>OM/ZA-114 Dubová</name>
<cmt>OM/ZA-114</cmt>
<desc>Slovakia | Žilinský | 727m / 2385ft | 2 pts | 14 activations</desc>
<sym>Flag, Blue</sym>
</wpt>
<wpt lat="49.2653" lon="18.7678">
<ele>719.0</ele>
<name>OM/ZA-115 Brodnianka</name>
<cmt>OM/ZA-115</cmt>
<desc>Slovakia | Žilinský | 719m / 2358ft | 2 pts | 25 activations</desc>
<sym>Flag, Blue</sym>
</wpt>
<wpt lat="49.2293" lon="18.6851">
<ele>641.0</ele>
<name>OM/ZA-116 Snoh</name>
<cmt>OM/ZA-116</cmt>
<desc>Slovakia | Žilinský | 641m / 2103ft | 1 pts | 19 activations</desc>
<sym>Flag, Blue</sym>
</wpt>
<wpt lat="49.1767" lon="18.5326">
<ele>600.0</ele>
<name>OM/ZA-117 Hradište</name>
<cmt>OM/ZA-117</cmt>
<desc>Slovakia | Žilinský | 600m / 1968ft | 1 pts | 6 activations</desc>
<sym>Flag, Blue</sym>
</wpt>
</gpx>